{"version": 0.6, "generator": "Overpass API 0.7.61.5 4133829e", "osm3s": {"timestamp_osm_base": "2024-02-22T06:36:14Z", "timestamp_areas_base": "2024-02-22T03:06:42Z", "copyright": "The data included in this document is from www.openstreetmap.org. The data is made available under ODbL."}, "elements": [{"type": "node", "id": 469342513, "lat": 35.3720331, "lon": -80.7828494, "tags": {"amenity": "restaurant", "cuisine": "pizza", "name": "Hawthorne's New York Pizza"}}, {"type": "node", "id": 618922739, "lat": 35.0864088, "lon": -80.8488902, "tags": {"amenity": "restaurant", "name": "Bangkok Ocha"}}, {"type": "node", "id": 1062479490, "lat": 35.2938591, "lon": -80.7394098, "tags": {"amenity": "restaurant", "cuisine": "mexican", "name": "Monterrey Mexican Restaurant", "outdoor_seating": "no", "smoking": "no", "takeaway": "yes"}}, {"type": "node", "id": 1062479493, "lat": 35.2941744, "lon": -80.7398926, "tags": {"amenity": "restaurant", "cuisine": "japanese", "delivery": "no", "name": "Kabuto Japanese Steak House", "smoking": "no", "takeaway": "yes"}}, {"type": "node", "id": 1583811958, "lat": 35.1383561, "lon": -80.9330852, "tags": {"amenity": "restaurant", "cuisine": "steak_house", "name": "Harry's Grille & Tavern"}}, {"type": "node", "id": 1769536487, "lat": 35.2195126, "lon": -80.9425879, "tags": {"amenity": "restaurant", "name": "Bad Daddy's "}}, {"type": "node", "id": 1776502308, "lat": 35.0970101, "lon": -80.780433, "tags": {"addr:housename": "8036", "addr:housenumber": "900", "addr:postcode": "28226", "addr:street": "Providence Road", "amenity": "restaurant", "cuisine": "american", "name": "Cajun Yard Dog"}}, {"type": "node", "id": 1776503261, "lat": 35.0958924, "lon": -80.7799113, "tags": {"addr:housename": "8128", "addr:housenumber": "1200", "addr:postcode": "28226", "addr:street": "Providence Road", "amenity": "restaurant", "cuisine": "steak_house", "name": "Mickey and Mooch"}}, {"type": "node", "id": 1776505664, "lat": 35.0966139, "lon": -80.7785689, "tags": {"addr:housenumber": "8140", "addr:postcode": "28226", "addr:street": "Providence Road", "amenity": "restaurant", "cuisine": "american", "name": "New South Kitchen & Bar"}}, {"type": "node", "id": 1776506936, "lat": 35.09743, "lon": -80.7791615, "tags": {"addr:housenumber": "8046-D", "addr:postcode": "28226", "addr:street": "Providence Road", "amenity": "restaurant", "brand": "McAlister's Deli", "brand:wikidata": "Q17020829", "cuisine": "sandwich", "name": "McAlister's Deli"}}, {"type": "node", "id": 1848893550, "lat": 35.225542, "lon": -80.8427582, "tags": {"addr:city": "Charlotte", "addr:housenumber": "210", "addr:postcode": "28202", "addr:state": "NC", "addr:street": "East Trade Street", "addr:unit": "Suite C-110", "amenity": "restaurant", "brand": "Fleming's", "brand:wikidata": "Q5458552", "cuisine": "steak_house", "name": "Fleming's", "official_name": "Fleming's Prime Steakhouse & Wine Bar"}}, {"type": "node", "id": 1848893577, "lat": 35.2289353, "lon": -80.8427746, "tags": {"addr:city": "Charlotte", "addr:country": "US", "addr:housenumber": "210", "addr:postcode": "28202", "addr:state": "NC", "addr:street": "North Church Street", "amenity": "restaurant", "cuisine": "thai", "name": "Basil Thai Cuisine", "wheelchair": "yes"}}, {"type": "node", "id": 1848893622, "lat": 35.225726, "lon": -80.8422936, "tags": {"amenity": "restaurant", "name": "Sea Grill Restaurant and Bar"}}, {"type": "node", "id": 1848893663, "lat": 35.2274313, "lon": -80.8400624, "tags": {"addr:city": "Charlotte", "addr:country": "US", "addr:housenumber": "230", "addr:postcode": "28202", "addr:state": "NC", "addr:street": "North College Street", "amenity": "restaurant", "cuisine": "italian", "name": "Caffe Siena"}}, {"type": "node", "id": 1887352888, "lat": 35.1872676, "lon": -80.7584156, "tags": {"amenity": "restaurant", "cuisine": "chinese", "name": "Fu Lin"}}, {"type": "node", "id": 2162856993, "lat": 35.1881576, "lon": -80.8331204, "tags": {"amenity": "restaurant"}}, {"type": "node", "id": 2278730282, "lat": 35.2336339, "lon": -80.8407528, "tags": {"addr:city": "Charlotte", "addr:country": "US", "addr:housenumber": "401", "addr:postcode": "28202", "addr:state": "NC", "addr:street": "West 9th Street", "amenity": "restaurant", "check_date": "2023-06-14", "loc_name": "Al Mike\u2019s", "name": "Alexander Michael's", "phone": "+1 704-332-6789", "website": "https://almikestavern.com/", "wheelchair": "limited", "wheelchair:description": "Step-free entry, but bathroom is not accessible. Restaurant is small with tables close together, so could be difficult to navigate with a larger wheelchair."}}, {"type": "node", "id": 2588326010, "lat": 35.1465793, "lon": -80.8268453, "tags": {"amenity": "restaurant", "brand": "P.F. Chang's", "brand:wikidata": "Q5360181", "cuisine": "asian", "name": "P.F. Chang's", "official_name": "P.F. Chang's China Bistro"}}, {"type": "node", "id": 2588326012, "lat": 35.1482334, "lon": -80.8333438, "tags": {"amenity": "restaurant", "brand": "The Original Pancake House", "brand:wikidata": "Q7755384", "cuisine": "breakfast;pancake", "name": "The Original Pancake House"}}, {"type": "node", "id": 2588352014, "lat": 35.1536009, "lon": -80.7462329, "tags": {"amenity": "restaurant", "cuisine": "seafood", "name": "Captain Steve's"}}, {"type": "node", "id": 2588352089, "lat": 35.1351324, "lon": -80.7366999, "tags": {"amenity": "restaurant", "cuisine": "pizza", "name": "Tony's Pizza"}}, {"type": "node", "id": 2588352129, "lat": 35.1380102, "lon": -80.7346174, "tags": {"addr:city": "Charlotte", "addr:housenumber": "1848", "addr:postcode": "28277", "addr:street": "Galleria Boulevard", "amenity": "restaurant", "cuisine": "japanese", "name": "Shiki Japanese", "opening_hours": "11:00-21:00; Fr 11:00-21:30", "smoking": "no"}}, {"type": "node", "id": 2588395384, "lat": 35.056188, "lon": -80.8540683, "tags": {"amenity": "restaurant", "cuisine": "greek", "name": "Akropolis Cafe"}}, {"type": "node", "id": 2588395419, "lat": 35.136598, "lon": -80.9365088, "tags": {"amenity": "restaurant", "brand": "McAlister's Deli", "brand:wikidata": "Q17020829", "cuisine": "sandwich", "name": "McAlister's Deli"}}, {"type": "node", "id": 2588395453, "lat": 35.1337097, "lon": -80.9405986, "tags": {"addr:city": "Charlotte", "addr:housenumber": "9124-A", "addr:postcode": "28273", "addr:state": "NC", "addr:street": "South Tryon Street", "amenity": "restaurant", "cuisine": "pizza", "name": "Joe Mama's Pizza & Grill", "opening_hours": "Mo-Sa 11:00-21:00", "phone": "+1-704-588-6583", "smoking": "no", "takeaway": "yes", "website": "https://joemommasgrille.com/"}}, {"type": "node", "id": 2619349396, "lat": 35.1021585, "lon": -80.9851438, "tags": {"amenity": "restaurant", "name": "Just Fresh"}}, {"type": "node", "id": 2619349397, "lat": 35.1025041, "lon": -80.9856842, "tags": {"amenity": "restaurant", "cuisine": "burger", "name": "American Burger"}}, {"type": "node", "id": 2619349398, "lat": 35.102955, "lon": -80.9848542, "tags": {"amenity": "restaurant", "cuisine": "japanese", "name": "Fuji Steakhouse"}}, {"type": "node", "id": 2620535195, "lat": 35.1027711, "lon": -80.9907977, "tags": {"amenity": "restaurant", "cuisine": "chinese", "name": "China Town"}}, {"type": "node", "id": 2624952868, "lat": 35.2065446, "lon": -80.8610949, "tags": {"addr:city": "Charlotte", "addr:country": "US", "addr:housenumber": "2201", "addr:postcode": "28203", "addr:state": "NC", "addr:street": "South Boulevard", "amenity": "restaurant", "name": "Yunta", "opening_hours": "Tu-Th 17:00-22:00; Fr,Sa 12:00-23:00; Su 12:00-22:00"}}, {"type": "node", "id": 2624953033, "lat": 35.2139184, "lon": -80.8556348, "tags": {"addr:city": "Charlotte", "addr:country": "US", "addr:housenumber": "1520", "addr:postcode": "28203", "addr:state": "NC", "addr:street": "South Boulevard", "amenity": "restaurant", "brand": "Carrabba's Italian Grill", "brand:wikidata": "Q5045999", "cuisine": "italian", "name": "Carrabba's Italian Grill", "opening_hours": "Su-Th 11:00-22:00, Fr-Sa 11:00-23:00", "phone": "(704) 377-2458", "website": "https://www.carrabbas.com/restaurant/locations/nc/charlotte/charlotte-south-end/index.aspx"}}, {"type": "node", "id": 2716293934, "lat": 35.1467408, "lon": -80.8277163, "tags": {"amenity": "restaurant", "name": "The Palm"}}, {"type": "node", "id": 2716296081, "lat": 35.1457489, "lon": -80.8256511, "tags": {"addr:city": "Charlote", "addr:postcode": "28210", "amenity": "restaurant", "name": "Vacant Restaurant"}}, {"type": "node", "id": 2869700885, "lat": 35.1408072, "lon": -80.7402373, "tags": {"addr:city": "Charlotte", "addr:housenumber": "9614", "addr:postcode": "28270", "addr:state": "NC", "addr:street": "Monroe Road", "amenity": "restaurant", "brand": "Pizza Hut", "brand:wikidata": "Q191615", "contact:website": "https://locations.pizzahut.com/nc/charlotte/9614-monroe-rd", "cuisine": "pizza", "entrance": "yes", "name": "Pizza Hut"}}, {"type": "node", "id": 2990864745, "lat": 35.2470979, "lon": -80.8057489, "tags": {"addr:city": "Charlotte", "addr:housenumber": "3201", "addr:postcode": "28205", "addr:state": "NC", "addr:street": "North Davidson Street", "amenity": "restaurant", "entrance": "yes", "name": "Cabo Fish Taco", "wheelchair": "limited"}}, {"type": "node", "id": 3062290778, "lat": 35.2231669, "lon": -80.9403522, "tags": {"amenity": "restaurant", "cuisine": "american", "name": "Whiskey River", "operator": "HSM Host"}}, {"type": "node", "id": 3298028767, "lat": 35.1752039, "lon": -80.8496188, "tags": {"addr:city": "Charlotte", "addr:housenumber": "4127", "addr:postcode": "28209", "addr:state": "NC", "addr:street": "Park Road", "amenity": "restaurant", "cuisine": "italian", "entrance": "yes", "name": "Osteria LuCa"}}, {"type": "node", "id": 3298028792, "lat": 35.1750358, "lon": -80.8488498, "tags": {"addr:city": "Charlotte", "addr:housenumber": "4151", "addr:postcode": "28209", "addr:state": "NC", "addr:street": "Park Road", "addr:unit": "A", "amenity": "restaurant", "entrance": "yes", "name": "Sir Edmund Halley's"}}, {"type": "node", "id": 3298043370, "lat": 35.1716938, "lon": -80.8470746, "tags": {"amenity": "restaurant", "name": "Sushi 101"}}, {"type": "node", "id": 3298043389, "lat": 35.1718117, "lon": -80.8493582, "tags": {"amenity": "restaurant", "brand": "Jason's Deli", "brand:wikidata": "Q16997641", "cuisine": "sandwich", "name": "Jason's Deli"}}, {"type": "node", "id": 3302698294, "lat": 35.1912905, "lon": -80.797295, "tags": {"addr:housenumber": "901C", "amenity": "restaurant", "cuisine": "chinese", "name": "Hunan Express Chinese Restaurant"}}, {"type": "node", "id": 3302698297, "lat": 35.1916931, "lon": -80.7975598, "tags": {"addr:housenumber": "911", "amenity": "restaurant", "cuisine": "mexican", "name": "Los Pinos"}}, {"type": "node", "id": 3302732439, "lat": 35.1464048, "lon": -80.8278493, "tags": {"amenity": "restaurant", "cuisine": "pizza", "name": "Wolfgang Puck Pizza Bar"}}, {"type": "node", "id": 3302837224, "lat": 35.152011, "lon": -80.8303193, "tags": {"amenity": "restaurant", "brand": "Maggiano's Little Italy", "brand:wikidata": "Q6730149", "cuisine": "italian", "name": "Maggiano's Little Italy"}}, {"type": "node", "id": 3302837225, "lat": 35.1516134, "lon": -80.8304453, "tags": {"alt_name": "Cheesecake Factory", "amenity": "restaurant", "brand": "The Cheesecake Factory", "brand:wikidata": "Q1045842", "cuisine": "american", "name": "The Cheesecake Factory"}}, {"type": "node", "id": 3302844766, "lat": 35.1529031, "lon": -80.8330267, "tags": {"amenity": "restaurant", "cuisine": "japanese", "name": "Nori Japan"}}, {"type": "node", "id": 3302844772, "lat": 35.1527746, "lon": -80.8325007, "tags": {"amenity": "restaurant", "name": "Nestle Toll House"}}, {"type": "node", "id": 3302844779, "lat": 35.153129, "lon": -80.8328487, "tags": {"amenity": "restaurant", "cuisine": "fusion", "name": "Showmars"}}, {"type": "node", "id": 3302844780, "lat": 35.1531109, "lon": -80.8327597, "tags": {"amenity": "restaurant", "name": "Pei Wei Asian Express", "not:brand:wikidata": "Q7160898", "phone": "+1 (704) 442-7222"}}, {"type": "node", "id": 3302857067, "lat": 35.1529745, "lon": -80.8343426, "tags": {"addr:city": "Charlotte", "addr:housenumber": "4335", "addr:postcode": "28211", "addr:state": "NC", "addr:street": "Barclay Downs Drive", "amenity": "restaurant", "brand": "McCormick & Schmick's", "brand:wikidata": "Q6800562", "cuisine": "seafood;steak", "name": "McCormick & Schmick's"}}, {"type": "node", "id": 3304497473, "lat": 35.1172482, "lon": -80.8573936, "tags": {"amenity": "restaurant", "name": "Wolfman Pizza"}}, {"type": "node", "id": 3304497479, "lat": 35.1172804, "lon": -80.8569259, "tags": {"amenity": "restaurant", "cuisine": "greek", "name": "Ilios Noche Restaurant"}}, {"type": "node", "id": 3304497481, "lat": 35.1171416, "lon": -80.8567634, "tags": {"amenity": "restaurant", "cuisine": "asian", "name": "Umai Sushi & Asian Bistro"}}, {"type": "node", "id": 3304497484, "lat": 35.1168347, "lon": -80.8565913, "tags": {"amenity": "restaurant", "name": "Salsarita's"}}, {"type": "node", "id": 3313308331, "lat": 35.2254156, "lon": -80.848404, "tags": {"amenity": "restaurant", "cuisine": "burger", "name": "American Roadside Burgers"}}, {"type": "node", "id": 3313308332, "lat": 35.2254703, "lon": -80.8483073, "tags": {"amenity": "restaurant", "cuisine": "asian", "name": "Hasaki Grill & Sushi"}}, {"type": "node", "id": 3313308333, "lat": 35.2258077, "lon": -80.8477597, "tags": {"amenity": "restaurant", "brand": "Mellow Mushroom", "brand:wikidata": "Q17021360", "cuisine": "pizza", "name": "Mellow Mushroom"}}, {"type": "node", "id": 3313308334, "lat": 35.2259944, "lon": -80.8470032, "tags": {"addr:city": "Charlotte", "addr:housenumber": "321", "addr:postcode": "28202", "addr:state": "NC", "addr:street": "South Church Street", "amenity": "restaurant", "name": "French Quarter Restaurant"}}, {"type": "node", "id": 3313321876, "lat": 35.0861735, "lon": -80.8501102, "tags": {"addr:city": "Charlotte", "addr:housenumber": "7701", "addr:postcode": "28226", "addr:state": "NC", "addr:street": "Pineville-Matthews Road", "amenity": "restaurant", "brand": "Chuck E. Cheese", "brand:wikidata": "Q2438391", "cuisine": "pizza", "leisure": "amusement_arcade", "name": "Chuck E. Cheese", "website": "https://locations.chuckecheese.com/us/nc/charlotte/7701-pineville-matthews-rd."}}, {"type": "node", "id": 3313321892, "lat": 35.0854724, "lon": -80.8475205, "tags": {"amenity": "restaurant", "cuisine": "mexican", "name": "Cabo's Mexican Cuisine & Cantina"}}, {"type": "node", "id": 3313321893, "lat": 35.0856151, "lon": -80.847423, "tags": {"amenity": "restaurant", "cuisine": "chinese", "name": "Great Wall of China"}}, {"type": "node", "id": 3313330810, "lat": 35.0292102, "lon": -80.8502646, "tags": {"amenity": "restaurant", "cuisine": "asian", "name": "Amazing Wok"}}, {"type": "node", "id": 3313330814, "lat": 35.0282545, "lon": -80.8509762, "tags": {"amenity": "restaurant", "cuisine": "mexican", "name": "La Autentica", "takeaway": "yes"}}, {"type": "node", "id": 3313338145, "lat": 35.0539031, "lon": -80.8490416, "tags": {"amenity": "restaurant", "name": "The Olive Tap"}}, {"type": "node", "id": 3313338153, "lat": 35.0539996, "lon": -80.8469359, "tags": {"amenity": "restaurant", "cuisine": "pizza", "name": "Libretto's Pizzaria"}}, {"type": "node", "id": 3313338154, "lat": 35.0537365, "lon": -80.8469787, "tags": {"amenity": "restaurant", "cuisine": "barbecue", "name": "Dickey's BBQ Pit"}}, {"type": "node", "id": 3313338155, "lat": 35.0536597, "lon": -80.8469085, "tags": {"amenity": "restaurant", "brand": "McAlister's Deli", "brand:wikidata": "Q17020829", "cuisine": "sandwich", "name": "McAlister's Deli"}}, {"type": "node", "id": 3313338157, "lat": 35.0534256, "lon": -80.8469365, "tags": {"amenity": "restaurant", "brand": "Pizza Hut", "brand:wikidata": "Q191615", "contact:website": "https://locations.pizzahut.com/nc/charlotte/15105-john-j-delaney-dr", "cuisine": "pizza", "name": "Pizza Hut"}}, {"type": "node", "id": 3313338159, "lat": 35.0533508, "lon": -80.8470593, "tags": {"amenity": "restaurant", "name": "Chef Kwo"}}, {"type": "node", "id": 3313338164, "lat": 35.0528894, "lon": -80.8473359, "tags": {"amenity": "restaurant", "cuisine": "mexican", "name": "Zapata's Mexican Restaurant"}}, {"type": "node", "id": 3313338165, "lat": 35.0527656, "lon": -80.8474252, "tags": {"amenity": "restaurant", "cuisine": "burger", "name": "Bad Daddy's Burger Bar"}}, {"type": "node", "id": 3313339273, "lat": 35.0539704, "lon": -80.8513466, "tags": {"amenity": "restaurant", "cuisine": "italian", "name": "Villa Antonio Italian Restaurant"}}, {"type": "node", "id": 3324011211, "lat": 35.2142401, "lon": -80.782182, "tags": {"amenity": "restaurant", "brand": "Pizza Hut", "brand:wikidata": "Q191615", "contact:website": "https://locations.pizzahut.com/nc/charlotte/3044-eastway-dr", "cuisine": "pizza", "name": "Pizza Hut"}}, {"type": "node", "id": 3324011219, "lat": 35.2128159, "lon": -80.7830513, "tags": {"amenity": "restaurant", "cuisine": "italian", "name": "Portofino Italian Restaurant", "toilets:wheelchair": "yes", "wheelchair": "yes"}}, {"type": "node", "id": 3324011223, "lat": 35.2126083, "lon": -80.7833928, "tags": {"amenity": "restaurant", "cuisine": "chinese", "name": "Little China Restaurant"}}, {"type": "node", "id": 3324042369, "lat": 35.163761, "lon": -80.7391857, "tags": {"amenity": "restaurant", "cuisine": "chinese", "name": "Fortune Cookie III"}}, {"type": "node", "id": 3324042372, "lat": 35.1637306, "lon": -80.7389043, "tags": {"amenity": "restaurant", "cuisine": "asian", "name": "Pho Huong Que"}}, {"type": "node", "id": 3324042395, "lat": 35.1612884, "lon": -80.7389327, "tags": {"amenity": "restaurant", "name": "K&W Cafeteria"}}, {"type": "node", "id": 3324042402, "lat": 35.1609222, "lon": -80.7397213, "tags": {"amenity": "restaurant", "cuisine": "chinese", "name": "Empress of China"}}, {"type": "node", "id": 3324042403, "lat": 35.1609507, "lon": -80.7396194, "tags": {"amenity": "restaurant", "name": "Anzi's Pizza"}}, {"type": "node", "id": 3324098636, "lat": 35.1751433, "lon": -80.8018116, "tags": {"amenity": "restaurant", "brand": "IHOP", "brand:wikidata": "Q1185675", "cuisine": "breakfast;pancake", "name": "IHOP"}}, {"type": "node", "id": 3324098647, "lat": 35.1760136, "lon": -80.8023508, "tags": {"amenity": "restaurant", "cuisine": "mexican", "name": "Salsarita's Restaurant"}}, {"type": "node", "id": 3324105766, "lat": 35.176091, "lon": -80.7996563, "tags": {"amenity": "restaurant", "name": "Wolfman Pizza"}}, {"type": "node", "id": 3324105771, "lat": 35.1764653, "lon": -80.7997098, "tags": {"addr:city": "Charlotte", "addr:housenumber": "110", "addr:postcode": "28211", "addr:state": "NC", "addr:street": "South Sharon Amity Road", "amenity": "restaurant", "cuisine": "thai", "name": "Thai House"}}, {"type": "node", "id": 3329467152, "lat": 35.0834428, "lon": -80.733067, "tags": {"amenity": "restaurant", "cuisine": "japanese", "name": "One\u2010U Japanese Restaurant"}}, {"type": "node", "id": 3491113529, "lat": 35.1740801, "lon": -80.8398918, "tags": {"addr:city": "Charlotte", "addr:housenumber": "2839", "addr:state": "NC", "addr:street": "Selwyn Avenue", "amenity": "restaurant", "cuisine": "italian;french", "name": "The Jimmy", "website": "https://www.thejimmyclt.com/", "wheelchair": "yes", "wheelchair:description": "Everything is flat including the outdoor patio."}}, {"type": "node", "id": 3682819537, "lat": 35.1116588, "lon": -80.9156008, "tags": {"addr:city": "Pineville", "addr:housenumber": "11200", "addr:postcode": "28134", "addr:state": "NC", "addr:street": "Nations Ford Road", "amenity": "restaurant", "name": "Corner Cafe and Catering", "takeaway": "yes"}}, {"type": "node", "id": 3784393198, "lat": 35.3380782, "lon": -80.7574593, "tags": {"addr:city": "Charlotte", "addr:housenumber": "2130", "addr:postcode": "28262", "addr:state": "NC", "addr:street": "East Arbors Drive", "amenity": "restaurant", "cuisine": "japanese", "name": "Toyama Express", "takeaway": "yes"}}, {"type": "node", "id": 3844601458, "lat": 35.2209105, "lon": -80.8102491, "tags": {"addr:city": "Charlotte", "addr:housenumber": "1308", "addr:postcode": "28205", "addr:state": "NC", "addr:street": "The Plaza", "amenity": "restaurant", "name": "Akhana Asian Bistro", "phone": "+1-704-817-9365", "website": "http://charlotte.akahanaasianbistro.com/"}}, {"type": "node", "id": 3969555362, "lat": 35.2134225, "lon": -80.8260188, "tags": {"addr:city": "Charlotte", "addr:housenumber": "1617", "addr:postcode": "28204", "addr:state": "NC", "addr:street": "Elizabeth Avenue", "amenity": "restaurant", "cuisine": "international;peruvian", "delivery": "no", "name": "Viva Chicken", "phone": "+1 (980) 335-0176", "takeaway": "yes", "website": "https://www.vivachicken.com/"}}, {"type": "node", "id": 3996523358, "lat": 35.3431456, "lon": -80.7687786, "tags": {"addr:city": "Charlotte", "addr:housenumber": "3020", "addr:postcode": "28269", "addr:state": "NC", "addr:street": "Prosperity Church Road", "amenity": "restaurant", "name": "Golden Coast", "takeaway": "yes"}}, {"type": "node", "id": 3996527057, "lat": 35.3424816, "lon": -80.7706437, "tags": {"addr:city": "Charlotte", "addr:housenumber": "3130", "addr:postcode": "28269", "addr:state": "NC", "addr:street": "Driwood Court", "amenity": "restaurant", "cuisine": "indian", "delivery": "yes", "name": "Persis Biryani Indian Grill", "takeaway": "yes"}}, {"type": "node", "id": 3996527058, "lat": 35.3423857, "lon": -80.7707298, "tags": {"addr:city": "Charlotte", "addr:housenumber": "3130", "addr:postcode": "28269", "addr:state": "NC", "addr:street": "Driwood Court", "amenity": "restaurant", "cuisine": "american", "name": "Kasper's Grill"}}, {"type": "node", "id": 3996527059, "lat": 35.3408866, "lon": -80.7700166, "tags": {"addr:city": "Charlotte", "addr:housenumber": "3020", "addr:postcode": "28269", "addr:state": "NC", "addr:street": "Driwood Court", "amenity": "restaurant", "cuisine": "japanese", "name": "Tintin Cafe"}}, {"type": "node", "id": 3996545228, "lat": 35.3373726, "lon": -80.7569223, "tags": {"addr:city": "Charlotte", "addr:housenumber": "2115", "addr:postcode": "28262", "addr:state": "NC", "addr:street": "East Arbors Drive", "amenity": "restaurant", "cuisine": "indian", "name": "Adisil"}}, {"type": "node", "id": 3996545230, "lat": 35.3370207, "lon": -80.7561834, "tags": {"addr:city": "Charlotte", "addr:housenumber": "2015", "addr:postcode": "28262", "addr:state": "NC", "addr:street": "East Arbors Drive", "amenity": "restaurant", "cuisine": "ice_cream", "name": "Rita's at The Arbors", "not:brand:wikidata": "Q7336456"}}, {"type": "node", "id": 4001585783, "lat": 35.2299173, "lon": -80.8396035, "tags": {"addr:city": "Charlotte", "addr:housenumber": "401", "addr:postcode": "28202", "addr:state": "NC", "addr:street": "North Tryon Street", "addr:unit": "Suite 106", "amenity": "restaurant", "cuisine": "indian", "name": "Aroma", "not:brand:wikidata": "Q2909872"}}, {"type": "node", "id": 4001621937, "lat": 35.226461, "lon": -80.8445484, "tags": {"amenity": "restaurant", "brand": "McCormick & Schmick's", "brand:wikidata": "Q6800562", "cuisine": "seafood;steak", "name": "McCormick & Schmick's"}}, {"type": "node", "id": 4311889293, "lat": 35.228636, "lon": -80.8425072, "tags": {"addr:city": "Charlotte", "addr:country": "US", "addr:housenumber": "118", "addr:postcode": "28202", "addr:state": "NC", "addr:street": "West 5th Street", "amenity": "restaurant", "email": "info@thedandelionmarket.com", "name": "Dandelion Market", "opening_hours": "Mo-Fr 11:00-15:00, 16:00-23:00; Sa-Su 10:00-15:00, 16:00-23:00", "phone": "+1 704 333 7989", "website": "https://www.dandelionmarketcharlotte.com/"}}, {"type": "node", "id": 4317717115, "lat": 35.2099033, "lon": -80.8593779, "tags": {"amenity": "restaurant", "name": "Tyber Creek Pub"}}, {"type": "node", "id": 4318400953, "lat": 35.2165917, "lon": -80.8544529, "tags": {"amenity": "restaurant", "name": "All American Pub"}}, {"type": "node", "id": 4318565911, "lat": 35.2104226, "lon": -80.8594777, "tags": {"amenity": "restaurant", "cuisine": "mexican", "name": "La Capital MX"}}, {"type": "node", "id": 4318565948, "lat": 35.2101455, "lon": -80.8598517, "tags": {"addr:city": "Charlotte", "addr:housenumber": "1928", "addr:postcode": "28203", "addr:state": "NC", "addr:street": "South Boulevard", "amenity": "restaurant", "cuisine": "steak_house", "name": "Sullivan's Steak House"}}, {"type": "node", "id": 4318625927, "lat": 35.2147961, "lon": -80.8546608, "tags": {"amenity": "restaurant", "name": "Crispy Crepe"}}, {"type": "node", "id": 4318625928, "lat": 35.2153637, "lon": -80.8553715, "tags": {"addr:city": "Charlotte", "addr:country": "US", "addr:housenumber": "222", "addr:state": "NC", "addr:street": "East Bland Street", "amenity": "restaurant", "contact:email": "slurp@futobuta.com", "contact:facebook": "futobutaramen", "contact:instagram": "futobutaramen", "contact:phone": "+1-704-376-8400", "contact:website": "https://futobuta.com", "cuisine": "asian", "name": "Futo Buta", "was:contact:facebook": "3104709582342"}}, {"type": "node", "id": 4365465877, "lat": 35.2217158, "lon": -80.8193063, "tags": {"addr:city": "Charlotte", "addr:housenumber": "1101", "addr:postcode": "28204", "addr:state": "NC", "addr:street": "Central Avenue", "amenity": "restaurant", "cuisine": "burger", "name": "Kickstand Burger Bar"}}, {"type": "node", "id": 4406120795, "lat": 35.2202368, "lon": -80.9433039, "tags": {"amenity": "restaurant", "cuisine": "mexican", "name": "Jose Cuervo Tequileria", "name:en": "Jose Cuervo Tequileria"}}, {"type": "node", "id": 4406141293, "lat": 35.218308, "lon": -80.9424564, "tags": {"amenity": "restaurant", "cuisine": "seafood", "name": "Phillips Famous Seafood", "name:en": "Phillips Famous Seafood"}}, {"type": "node", "id": 4406182490, "lat": 35.2204959, "lon": -80.9438286, "tags": {"amenity": "restaurant", "cuisine": "mexican", "name": "Salsarita's Fresh Cantina", "name:en": "Salsarita's Fresh Cantina"}}, {"type": "node", "id": 4503252692, "lat": 35.2971084, "lon": -80.7554052, "tags": {"addr:city": "Charlotte", "addr:country": "US", "addr:housenumber": "7945 Unit #110", "addr:postcode": "28262", "addr:state": "NC", "addr:street": "North Tryon Street", "addr:unit": "110", "amenity": "restaurant", "cuisine": "sandwich;american;regional;soul_food;southern", "diet:vegan": "yes", "diet:vegetarian": "yes", "email": "info@veltree.com", "name": "Veltree Vegan Restaurant", "name:en": "Veltree Vegan Restaurant", "phone": "+1 980-355-0075", "website": "https://www.veltree.com/"}}, {"type": "node", "id": 4710500000, "lat": 35.0261317, "lon": -80.8393385, "tags": {"amenity": "restaurant", "cuisine": "pizza", "delivery": "no", "name": "Lorenzo's Pizza", "outdoor_seating": "yes", "takeaway": "yes"}}, {"type": "node", "id": 4728572747, "lat": 35.1459669, "lon": -80.830049, "tags": {"addr:city": "Charlotte", "addr:postcode": "28210", "addr:state": "NC", "amenity": "restaurant", "cuisine": "southern", "name": "Dogwood Southern Table"}}, {"type": "node", "id": 4728572749, "lat": 35.1461193, "lon": -80.8303757, "tags": {"addr:city": "Charlotte", "addr:postcode": "28210", "addr:state": "NC", "addr:street": "Ashley Park Lane", "amenity": "restaurant", "name": "The Rusty Bucket"}}, {"type": "node", "id": 4781465504, "lat": 35.2095731, "lon": -80.8604037, "tags": {"addr:city": "Charlotte", "amenity": "restaurant", "cuisine": "sushi", "name": "O-Ku"}}, {"type": "node", "id": 5127122852, "lat": 35.0555075, "lon": -80.8515889, "tags": {"addr:city": "Charlotte", "addr:housenumber": "13855", "addr:postcode": "28277", "addr:state": "NC", "addr:street": "Conlan Circle", "amenity": "restaurant", "brand": "Pei Wei", "brand:wikidata": "Q7160898", "cuisine": "asian", "name": "Pei Wei"}}, {"type": "node", "id": 5129857998, "lat": 35.0563069, "lon": -80.8539934, "tags": {"addr:city": "Charlotte", "addr:housenumber": "14027", "addr:postcode": "28277", "addr:state": "NC", "addr:street": "Conlan Circle", "amenity": "restaurant", "cuisine": "pizza", "name": "Tony's Pizza", "takeaway": "yes"}}, {"type": "node", "id": 5141629922, "lat": 35.2200728, "lon": -80.9449666, "tags": {"amenity": "restaurant", "check_date": "2022-11-24", "name": "1897 Market", "name:en": "1897 Market"}}, {"type": "node", "id": 5196170218, "lat": 35.1528049, "lon": -80.8279589, "tags": {"amenity": "restaurant", "name": "Cowfish Sushi. Burger. Bar"}}, {"type": "node", "id": 5203220834, "lat": 35.2205032, "lon": -80.8156323, "tags": {"amenity": "restaurant", "cuisine": "japanese", "name": "Yama Izakaya"}}, {"type": "node", "id": 5203220838, "lat": 35.220618, "lon": -80.815613, "tags": {"addr:city": "Charlotte", "addr:housenumber": "1322", "addr:postcode": "28205", "addr:state": "NC", "addr:street": "Central Avenue", "amenity": "restaurant", "entrance": "yes", "name": "Bistro La Bon", "opening_hours": "Tu-Th 11:30-22:00; Fr 11:30-23:00; Sa 10:00-16:00, 17:00-23:00; Su 10:00-14:30"}}, {"type": "node", "id": 5266145724, "lat": 35.2085683, "lon": -80.8633394, "tags": {"addr:city": "Charlotte", "addr:housenumber": "2173", "addr:postcode": "28203", "addr:state": "NC", "addr:street": "Hawkins Street", "addr:unit": "A", "amenity": "restaurant", "cuisine": "sushi", "name": "Yamazaru Sushi & Sake"}}, {"type": "node", "id": 5266158117, "lat": 35.2128023, "lon": -80.8588823, "tags": {"amenity": "restaurant", "brand": "Blaze Pizza", "brand:wikidata": "Q23016666", "cuisine": "pizza", "name": "Blaze Pizza"}}, {"type": "node", "id": 5266158118, "lat": 35.2130502, "lon": -80.8586951, "tags": {"amenity": "restaurant", "name": "Bulgogi Box"}}, {"type": "node", "id": 5266162321, "lat": 35.2138685, "lon": -80.8579858, "tags": {"amenity": "restaurant", "name": "Leroy Fox Sothend"}}, {"type": "node", "id": 5266162323, "lat": 35.2141658, "lon": -80.8577602, "tags": {"amenity": "restaurant", "name": "Sabor"}}, {"type": "node", "id": 5267274710, "lat": 35.1969891, "lon": -80.8690372, "tags": {"addr:city": "Charlotte", "addr:housenumber": "3039", "addr:postcode": "28209", "addr:state": "NC", "addr:street": "South Boulevard", "amenity": "restaurant", "name": "Greystone Pub"}}, {"type": "node", "id": 5270325342, "lat": 35.1517991, "lon": -80.9506762, "tags": {"amenity": "restaurant", "cuisine": "thai", "name": "Siam Garden Thai Restaurant"}}, {"type": "node", "id": 5270325457, "lat": 35.1358847, "lon": -80.9374254, "tags": {"addr:city": "Charlotte", "addr:housenumber": "8943-R", "addr:state": "NC", "addr:street": "South Tryon Street", "amenity": "restaurant", "cuisine": "mexican", "name": "Don Pedro Mexican", "opening_hours": "Su-Th 11:00-22:00, Fr 11:00-23:00, Sa 11:00-02:00", "phone": "+1-704-504-5037"}}, {"type": "node", "id": 5270325479, "lat": 35.1296952, "lon": -80.9444776, "tags": {"amenity": "restaurant", "cuisine": "chinese;buffet", "name": "Jasmine Buffet", "smoking": "no", "takeaway": "yes"}}, {"type": "node", "id": 5274569183, "lat": 35.1168576, "lon": -80.9567505, "tags": {"addr:city": "Charlotte", "addr:housenumber": "13209", "addr:postcode": "28273", "addr:state": "NC", "addr:street": "Carowinds Boulevard", "addr:unit": "Suite B", "amenity": "restaurant", "cuisine": "wings", "name": "Wing King Cafe", "opening_hours": "Mo-Th 11:00-21:00; Fr-Sa 11:00-22:00; Su 12:00-21:00", "phone": "+1-704-504-1954", "website": "https://thewingkingcafe.com/"}}, {"type": "node", "id": 5274569234, "lat": 35.1194924, "lon": -80.9570524, "tags": {"addr:city": "Charlotte", "addr:housenumber": "10720", "addr:postcode": "27283", "addr:state": "NC", "addr:street": "South Tryon Street", "amenity": "restaurant", "cuisine": "asian", "name": "Wang & King Asian Cafe", "opening_hours": "Mo-Th 11:00-21:00; Fr-Sa 11:00-21:30", "phone": "+1-704-588-3080", "website": "https://www.wangkingcharlotte.com/"}}, {"type": "node", "id": 5274569235, "lat": 35.1189829, "lon": -80.957332, "tags": {"amenity": "restaurant", "brand": "Cicis", "brand:wikidata": "Q2972189", "cuisine": "pizza;buffet", "name": "Cicis"}}, {"type": "node", "id": 5274569264, "lat": 35.1168359, "lon": -80.9619967, "tags": {"amenity": "restaurant", "cuisine": "latin_american", "name": "Sabor Latin Street Grill"}}, {"type": "node", "id": 5286423661, "lat": 35.2090646, "lon": -80.8609734, "tags": {"amenity": "restaurant", "name": "Luna's Living Kitchen"}}, {"type": "node", "id": 5338146021, "lat": 35.2176163, "lon": -80.7942348, "tags": {"amenity": "restaurant", "internet_access": "wlan", "name": "Pho Noa"}}, {"type": "node", "id": 5363922477, "lat": 35.0954107, "lon": -80.7791836, "tags": {"amenity": "restaurant", "cuisine": "mediterranean", "name": "Bella Fresco Mediterranean"}}, {"type": "node", "id": 5363922478, "lat": 35.095366, "lon": -80.7790834, "tags": {"amenity": "restaurant", "cuisine": "asian", "name": "Malaya Kitchen Asian Fusion"}}, {"type": "node", "id": 5363922479, "lat": 35.0953332, "lon": -80.7789973, "tags": {"amenity": "restaurant", "cuisine": "japanese", "name": "Sushiya Japan"}}, {"type": "node", "id": 5363922480, "lat": 35.0953139, "lon": -80.7788791, "tags": {"amenity": "restaurant", "cuisine": "sandwich", "name": "Charlotte Cafe"}}, {"type": "node", "id": 5363922481, "lat": 35.0953216, "lon": -80.7786909, "tags": {"amenity": "restaurant", "cuisine": "greek", "name": "Akropolis Cafe"}}, {"type": "node", "id": 5363922482, "lat": 35.0953971, "lon": -80.7783438, "tags": {"amenity": "restaurant", "cuisine": "chinese", "name": "Cherry Blossom"}}, {"type": "node", "id": 5363922483, "lat": 35.0954294, "lon": -80.7781962, "tags": {"amenity": "restaurant", "brand": "Pizza Hut", "brand:wikidata": "Q191615", "cuisine": "pizza", "delivery": "yes", "name": "Pizza Hut", "smoking": "no", "takeaway": "only"}}, {"type": "node", "id": 5364185676, "lat": 35.0985294, "lon": -80.780465, "tags": {"amenity": "restaurant", "brand": "Noodles & Company", "brand:wikidata": "Q7049673", "cuisine": "pasta", "name": "Noodles & Company"}}, {"type": "node", "id": 5367346808, "lat": 35.0788711, "lon": -80.8173687, "tags": {"amenity": "restaurant", "cuisine": "salad", "name": "Crunch Bistro"}}, {"type": "node", "id": 5377023187, "lat": 35.2970821, "lon": -80.7575511, "tags": {"amenity": "restaurant", "cuisine": "burger;milkshake", "delivery": "no", "name": "Hwy 55 Burgers Shakes & Fries", "smoking": "no", "takeaway": "yes"}}, {"type": "node", "id": 5377023188, "lat": 35.2968115, "lon": -80.7568879, "tags": {"addr:city": "Charlotte", "addr:housenumber": "5700", "addr:postcode": "28262", "addr:state": "NC", "addr:street": "University Pointe Boulevard", "amenity": "restaurant", "cuisine": "pizza", "name": "Da Vinci's Pizza", "opening_hours": "Mo-Sa 11:00-23:00; Su 11:30-21:00", "phone": "+1-704-900-6951", "website": "https://davincispizza.me/"}}, {"type": "node", "id": 5534707459, "lat": 35.2968373, "lon": -80.7375661, "tags": {"addr:city": "Charlotte", "addr:housenumber": "8640", "addr:postcode": "28213", "addr:state": "NC", "addr:street": "University City Boulevard", "addr:unit": "A9", "amenity": "restaurant", "cuisine": "asian", "name": "My Bento Asian Diner", "opening_hours": "Mo-Sa 11:00-21:00; Su 12:00-18:00", "phone": "+1-704-548-0777", "smoking": "no", "takeaway": "yes", "website": "https://www.savepointvideogames.com/"}}, {"type": "node", "id": 5534707465, "lat": 35.2959887, "lon": -80.7390945, "tags": {"amenity": "restaurant", "cuisine": "pizza;pasta", "delivery": "no", "name": "Amalfi's Pizza 'n' Pasta", "outdoor_seating": "yes", "smoking": "no", "takeaway": "yes"}}, {"type": "node", "id": 5534750946, "lat": 35.2972546, "lon": -80.7472379, "tags": {"amenity": "restaurant", "cuisine": "buffet", "delivery": "no", "name": "River Grill & Buffet", "outdoor_seating": "no", "smoking": "no", "takeaway": "yes"}}, {"type": "node", "id": 5536864940, "lat": 35.3106885, "lon": -80.7160653, "tags": {"amenity": "restaurant", "cuisine": "asian", "name": "Chopsticks"}}, {"type": "node", "id": 5538054035, "lat": 35.3091159, "lon": -80.7476858, "tags": {"amenity": "restaurant", "brand": "Tijuana Flats", "brand:wikidata": "Q7801833", "cuisine": "mexican", "name": "Tijuana Flats"}}, {"type": "node", "id": 5538054036, "lat": 35.3090139, "lon": -80.7477779, "tags": {"amenity": "restaurant", "brand": "Noodles & Company", "brand:wikidata": "Q7049673", "cuisine": "pasta", "delivery": "no", "name": "Noodles & Company", "smoking": "no", "takeaway": "yes"}}, {"type": "node", "id": 5538125288, "lat": 35.3098684, "lon": -80.7470082, "tags": {"amenity": "restaurant", "brand": "Pei Wei", "brand:wikidata": "Q7160898", "cuisine": "asian", "delivery": "no", "name": "Pei Wei", "smoking": "no", "takeaway": "yes"}}, {"type": "node", "id": 5538537675, "lat": 35.3090975, "lon": -80.7493277, "tags": {"addr:city": "Charlotte", "addr:housenumber": "8927", "addr:postcode": "28262", "addr:state": "NC", "addr:street": "J M Keynes Drive", "addr:unit": "Suite 900", "amenity": "restaurant", "cuisine": "mexican", "fax": "+1-704-503-1179", "name": "Zapata's Cantina Mexican Restaurant", "opening_hours": "Su-Th 11:00-22:30, Fr-Sa 11:00-02:00", "phone": "+1-704-503-1979", "website": "https://www.zapatasrestaurant.com/"}}, {"type": "node", "id": 5538537676, "lat": 35.3098347, "lon": -80.7493179, "tags": {"addr:city": "Charlotte", "addr:housenumber": "8927", "addr:postcode": "28262", "addr:state": "NC", "addr:street": "J M Keynes Drive", "amenity": "restaurant", "cuisine": "italian", "name": "Ciro's Italian Restaurant", "opening_hours": "Mo-Sa 11:00-22:00", "opening_hours:covid19": "Mo-Sa 15:00-21:00", "phone": "+1-704-510-0012", "website": "https://www.ciroscharlotte.com/"}}, {"type": "node", "id": 5538678264, "lat": 35.3023157, "lon": -80.7477691, "tags": {"amenity": "restaurant", "cuisine": "barbecue", "name": "Shane's Rib Shack"}}, {"type": "node", "id": 5551765530, "lat": 35.2576721, "lon": -80.7351197, "tags": {"amenity": "restaurant", "cuisine": "chinese", "name": "Fortune Cookie V"}}, {"type": "node", "id": 5612026464, "lat": 35.2687964, "lon": -80.8378286, "tags": {"amenity": "restaurant", "name": "Bodrick\u2019s BBQ"}}, {"type": "node", "id": 5612026466, "lat": 35.2661463, "lon": -80.8368748, "tags": {"amenity": "restaurant", "name": "Bob's Carry Out"}}, {"type": "node", "id": 5661885463, "lat": 35.3230942, "lon": -80.9458077, "tags": {"amenity": "restaurant", "cuisine": "asian", "name": "Red Bowl", "smoking": "no"}}, {"type": "node", "id": 5661885464, "lat": 35.3233442, "lon": -80.9461933, "tags": {"amenity": "restaurant", "brand": "Pizza Hut", "brand:wikidata": "Q191615", "contact:website": "https://locations.pizzahut.com/nc/charlotte/3530-mt-holly-huntersville-rd", "cuisine": "pizza", "delivery": "yes", "name": "Pizza Hut", "smoking": "no", "takeaway": "yes"}}, {"type": "node", "id": 5683138346, "lat": 35.2476605, "lon": -80.8043281, "tags": {"addr:housenumber": "501", "addr:street": "East 36th Street", "amenity": "restaurant", "description": "Seafood, gumbo, and Cajun style fare.", "entrance": "yes", "name": "Boudreaux\u2019s Louisiana Kitchen", "opening_hours": "Mo-Su 11:00-22:00", "phone": "(704) 331-9898", "website": "https://boudreauxsnoda.com"}}, {"type": "node", "id": 5721511972, "lat": 35.3177736, "lon": -80.7721914, "tags": {"amenity": "restaurant", "cuisine": "pizza", "name": "Tony's Pizza"}}, {"type": "node", "id": 5721511974, "lat": 35.3178191, "lon": -80.7725044, "tags": {"amenity": "restaurant", "cuisine": "mexican", "name": "Salsarita's Fresh Mexican Grill"}}, {"type": "node", "id": 5721512499, "lat": 35.335096, "lon": -80.7960178, "tags": {"amenity": "restaurant", "cuisine": "japanese", "name": "Teriyaki Express II"}}, {"type": "node", "id": 5750022471, "lat": 35.2117739, "lon": -80.8603349, "tags": {"addr:city": "Charlotte", "addr:housenumber": "101", "addr:postcode": "28203", "addr:state": "NC", "addr:street": "West Worthington Avenue", "addr:unit": "100", "amenity": "restaurant", "cuisine": "tex-mex", "name": "Superica", "outdoor_seating": "yes", "takeaway": "yes", "website": "http://www.superica.com/charlotte/"}}, {"type": "node", "id": 5771953919, "lat": 35.3081283, "lon": -80.7697172, "tags": {"amenity": "restaurant", "cuisine": "cafeteria;salad;burger;pizza", "name": "Innovation Bistro", "opening_hours": "Mo-Fr 07:00-15:00", "outdoor_seating": "yes", "smoking": "no", "website": "https://beco.cafebonappetit.com/"}}, {"type": "node", "id": 5897667998, "lat": 35.1789561, "lon": -80.8807829, "tags": {"addr:city": "Charlotte", "addr:housenumber": "225", "addr:postcode": "28217", "addr:state": "NC", "addr:street": "East Woodlawn Road", "amenity": "restaurant", "delivery": "no", "fax": "+1 704 522 8172", "name": "Carolina Prime Restaurant And Steakhouse", "opening_hours": "Mo-Th 06:00-22:00; Fr-Sa 06:00-23:00", "outdoor_seating": "no", "phone": "+1 704 522 8170", "smoking": "no", "takeaway": "yes", "website": "https://www.carolinaprimecharlotte.com", "wheelchair": "limited"}}, {"type": "node", "id": 5938920509, "lat": 35.0261841, "lon": -80.8407087, "tags": {"amenity": "restaurant", "cuisine": "waffle", "name": "Cast Iron Waffles"}}, {"type": "node", "id": 5939769481, "lat": 42.569018, "lon": -84.8271358, "tags": {"amenity": "restaurant", "cuisine": "pizza", "name": "Pizza Hut"}}, {"type": "node", "id": 5957777129, "lat": 35.088206, "lon": -80.8511347, "tags": {"amenity": "restaurant", "name": "Kabuto's"}}, {"type": "node", "id": 5972512945, "lat": 35.0436438, "lon": -80.8477337, "tags": {"amenity": "restaurant", "entrance": "shop", "name": "City Barbecue"}}, {"type": "node", "id": 6096079467, "lat": 35.1903496, "lon": -80.9286479, "tags": {"amenity": "restaurant", "cuisine": "mexican", "name": "Anita\u2019s Mexican Grill"}}, {"type": "node", "id": 6103496882, "lat": 35.0481405, "lon": -80.8162322, "tags": {"amenity": "restaurant"}}, {"type": "node", "id": 6103496883, "lat": 35.0483429, "lon": -80.816162, "tags": {"amenity": "restaurant"}}, {"type": "node", "id": 6257045702, "lat": 35.2453596, "lon": -80.8092003, "tags": {"amenity": "restaurant", "cuisine": "pizza", "entrance": "yes", "name": "Benny Pennello\u2019s", "outdoor_seating": "no", "smoking": "no"}}, {"type": "node", "id": 6286798030, "lat": 35.0534984, "lon": -80.8126069, "tags": {"amenity": "restaurant", "name": "Famous Toastery"}}, {"type": "node", "id": 6286798031, "lat": 35.0533071, "lon": -80.812913, "tags": {"amenity": "restaurant", "entrance": "yes", "name": "Rico's Acai"}}, {"type": "node", "id": 6286798032, "lat": 35.0536601, "lon": -80.8119396, "tags": {"amenity": "restaurant", "name": "Hawthorne's Pizza"}}, {"type": "node", "id": 6286798034, "lat": 35.0538384, "lon": -80.8121848, "tags": {"amenity": "restaurant", "cuisine": "seafood", "name": "Oyster Bar"}}, {"type": "node", "id": 6301315379, "lat": 35.0604831, "lon": -80.838534, "tags": {"amenity": "restaurant", "name": "Cabo Fish Taco"}}, {"type": "node", "id": 6301662068, "lat": 35.0860408, "lon": -80.8472016, "tags": {"amenity": "restaurant", "cuisine": "pizza", "name": "The Rusty Onion"}}, {"type": "node", "id": 6332298775, "lat": 35.2252054, "lon": -80.8421438, "tags": {"amenity": "restaurant", "name": "RedEye Diner"}}, {"type": "node", "id": 6426629947, "lat": 35.054139, "lon": -80.8522732, "tags": {"addr:city": "Charlotte", "addr:housenumber": "14825", "addr:postcode": "28277", "addr:state": "NC", "addr:street": "Ballantyne Village Way", "amenity": "restaurant", "brand": "B.Good", "brand:wikidata": "Q63313402", "contact:phone": "+1-980-237-8494", "contact:website": "https://www.bgood.com/locations/14825-ballantyne-village-way-charlotte-nc/", "cuisine": "burger", "diet:gluten_free": "yes", "diet:vegan": "yes", "diet:vegetarian": "yes", "name": "B.Good", "opening_hours": "Mo-Sa 08:00-21:00; Su 08:00-20:00"}}, {"type": "node", "id": 6439959041, "lat": 35.314341, "lon": -80.7022143, "tags": {"addr:city": "Charlotte", "addr:housenumber": "10900", "addr:postcode": "28213", "addr:state": "NC", "addr:street": "University City Boulevard", "amenity": "restaurant", "brand": "Cicis", "brand:wikidata": "Q2972189", "cuisine": "pizza;buffet", "name": "Cicis"}}, {"type": "node", "id": 6439968798, "lat": 35.3056859, "lon": -80.7235393, "tags": {"addr:city": "Charlotte", "addr:housenumber": "9510", "addr:postcode": "28213", "addr:state": "NC", "addr:street": "University City Boulevard", "addr:unit": "101", "amenity": "restaurant", "cuisine": "indian", "name": "Passage to India Indian Cuisine", "opening_hours": "Mo-Th 10:00-14:45, 17:00-21:30; Fr 10:00-14:45, 16:30-22:00; Sa 10:30-15:00, 16:30-22:00; Su 10:30-15:00, 17:00-21:30", "phone": "+1-704-549-1886", "website": "http://www.passagetoindianc.com/"}}, {"type": "node", "id": 6439968803, "lat": 35.3058421, "lon": -80.7233759, "tags": {"amenity": "restaurant", "brand": "Toppers Pizza", "brand:wikidata": "Q7825113", "cuisine": "pizza", "name": "Toppers Pizza"}}, {"type": "node", "id": 6439975945, "lat": 35.3068993, "lon": -80.7212178, "tags": {"amenity": "restaurant", "cuisine": "japanese", "name": "Hanaya Garden Japanese Grill"}}, {"type": "node", "id": 6439975948, "lat": 35.3068503, "lon": -80.7212738, "tags": {"amenity": "restaurant", "cuisine": "wings", "name": "America's Best Wings"}}, {"type": "node", "id": 6530620153, "lat": 35.2958438, "lon": -80.7976175, "tags": {"amenity": "restaurant", "cuisine": "chicken", "name": "Chicken King", "phone": "+1-704-598-6542"}}, {"type": "node", "id": 6530706416, "lat": 35.1387763, "lon": -80.9346512, "tags": {"amenity": "restaurant", "cuisine": "vietnamese", "name": "B\u00e1nh M\u00ec & Tea Company"}}, {"type": "node", "id": 6531394394, "lat": 35.1339325, "lon": -80.9391489, "tags": {"amenity": "restaurant", "cuisine": "vietnamese", "name": "Ph\u1edf Cali Thai"}}, {"type": "node", "id": 6531394404, "lat": 35.1380625, "lon": -80.9355893, "tags": {"amenity": "restaurant", "cuisine": "vietnamese", "name": "Ph\u1edf Ngon"}}, {"type": "node", "id": 6532532810, "lat": 35.2261341, "lon": -80.8360898, "tags": {"addr:city": "Charlotte", "addr:housenumber": "321", "addr:state": "NC", "addr:street": "North Caldwell Street", "amenity": "restaurant", "name": "7th Restaurant & Lounge"}}, {"type": "node", "id": 6532532816, "lat": 35.2471842, "lon": -80.8185706, "tags": {"amenity": "restaurant", "cuisine": "chinese", "name": "Chinese Fast Food"}}, {"type": "node", "id": 6532594748, "lat": 35.3042293, "lon": -80.7500084, "tags": {"amenity": "restaurant", "brand": "IHOP", "brand:wikidata": "Q1185675", "cuisine": "breakfast;pancake", "name": "IHOP"}}, {"type": "node", "id": 6532625908, "lat": 35.3340251, "lon": -80.7136923, "tags": {"amenity": "restaurant", "cuisine": "pizza"}}, {"type": "node", "id": 6532625921, "lat": 35.3340836, "lon": -80.7134565, "tags": {"amenity": "restaurant", "cuisine": "sushi", "name": "Sushi Queen"}}, {"type": "node", "id": 6585332735, "lat": 35.253862, "lon": -80.8053345, "tags": {"amenity": "restaurant", "name": "Negril Social"}}, {"type": "node", "id": 6646579460, "lat": 35.2459264, "lon": -80.8336928, "tags": {"addr:city": "Charlotte", "addr:housenumber": "301", "addr:postcode": "28206", "addr:state": "NC", "addr:street": "Camp Road", "addr:unit": "101", "amenity": "restaurant", "name": "Leah and Louise", "website": "https://www.leahandlouise.com/"}}, {"type": "node", "id": 6717370452, "lat": 35.2325421, "lon": -80.8490483, "tags": {"amenity": "restaurant", "cuisine": "pizza", "name": "Bisonte Pizza Company"}}, {"type": "node", "id": 6717370505, "lat": 35.2336087, "lon": -80.849283, "tags": {"amenity": "restaurant", "cuisine": "indian", "name": "Sithara Cafe"}}, {"type": "node", "id": 6717370506, "lat": 35.2337923, "lon": -80.849138, "tags": {"amenity": "restaurant", "check_date": "2023-06-13", "name": "Cedar Street Tavern"}}, {"type": "node", "id": 6717370520, "lat": 35.234659, "lon": -80.8507119, "tags": {"amenity": "restaurant", "cuisine": "cafeteria", "name": "Bytes Cafe"}}, {"type": "node", "id": 7070448958, "lat": 35.2453725, "lon": -80.8323553, "tags": {"addr:city": "Charlotte", "addr:housenumber": "1801", "addr:postcode": "28206", "addr:state": "NC", "addr:street": "North Graham Street", "amenity": "restaurant", "name": "Bleu Barn Bistro", "opening_hours": "Tu-Th 11:00-14:00; Fr,Sa 11:00-21:00", "outdoor_seating": "yes", "website": "https://bleubarnbistro.com"}}, {"type": "node", "id": 7070506913, "lat": 35.2452717, "lon": -80.8321917, "tags": {"addr:city": "Charlotte", "addr:housenumber": "1801", "addr:postcode": "28206", "addr:state": "NC", "addr:street": "North Graham Street", "amenity": "restaurant", "cuisine": "ramen", "name": "Saru by Bow Ramen", "opening_hours": "We-Th 11:00-14:00, Fr 11:00-15:00,17:00-22:00, Sa 11:00-22:00, Su 11:00-15:00,17:00-20:00", "outdoor_seating": "yes", "website": "https://www.bowramennyc.com"}}, {"type": "node", "id": 7170537574, "lat": 35.3267376, "lon": -80.9422437, "tags": {"addr:city": "Charlotte", "addr:housenumber": "9515", "addr:postcode": "28216", "addr:state": "NC", "addr:street": "Riverbend Village Drive", "addr:unit": "H2", "amenity": "restaurant", "cuisine": "pizza", "name": "Johnny Brusco's New York Style Pizza", "phone": "980-900-9425"}}, {"type": "node", "id": 7170556794, "lat": 35.3481216, "lon": -80.8591347, "tags": {"addr:city": "Charlotte", "addr:housenumber": "9739", "addr:postcode": "28216", "addr:state": "NC", "addr:street": "Northlake Centre Parkway", "amenity": "restaurant", "cuisine": "japanese", "name": "Edomae Sushi & Hibachi"}}, {"type": "node", "id": 7170572876, "lat": 35.3021857, "lon": -80.7477455, "tags": {"addr:city": "Charlotte", "addr:housenumber": "440", "addr:postcode": "28262", "addr:state": "NC", "addr:street": "East McCullough Drive", "amenity": "restaurant", "cuisine": "seafood", "name": "Crackin' Crawfish"}}, {"type": "node", "id": 7170573430, "lat": 35.3512426, "lon": -80.8417364, "tags": {"addr:city": "Charlotte", "addr:housenumber": "7240", "addr:postcode": "28269", "addr:state": "NC", "addr:street": "Smith Corners Boulevard", "amenity": "restaurant", "cuisine": "mexican", "name": "Azteca Mexican Resturant"}}, {"type": "node", "id": 7170573436, "lat": 35.349966, "lon": -80.8430374, "tags": {"addr:city": "Charlotte", "addr:housenumber": "7010", "addr:postcode": "28269", "addr:state": "NC", "addr:street": "Smith Corners Boulevard", "amenity": "restaurant", "name": "Boiling Pot"}}, {"type": "node", "id": 7179541598, "lat": 35.3475967, "lon": -80.8587594, "tags": {"addr:city": "Charlotte", "addr:housenumber": "9711", "addr:postcode": "28216", "addr:state": "NC", "addr:street": "Northlake Centre Parkway", "amenity": "restaurant", "cuisine": "burger", "name": "East Coast Wings +Grill"}}, {"type": "node", "id": 7235775635, "lat": 35.0307439, "lon": -80.8521024, "tags": {"amenity": "restaurant", "brand": "IHOP", "brand:wikidata": "Q1185675", "cuisine": "breakfast;pancake", "name": "IHOP"}}, {"type": "node", "id": 7235775640, "lat": 35.0312849, "lon": -80.8529099, "tags": {"amenity": "restaurant", "name": "Popcorn Emporium"}}, {"type": "node", "id": 7418212213, "lat": 35.2174755, "lon": -80.8640195, "tags": {"amenity": "restaurant", "cuisine": "italian", "name": "Pasta & Provisions"}}, {"type": "node", "id": 7514756881, "lat": 35.0535395, "lon": -80.7736528, "tags": {"amenity": "restaurant", "cuisine": "mexican", "name": "Fuzzy's Taco Shop"}}, {"type": "node", "id": 7514756884, "lat": 35.0528355, "lon": -80.7735636, "tags": {"amenity": "restaurant", "cuisine": "italian", "name": "Sensi"}}, {"type": "node", "id": 7514756885, "lat": 35.0528037, "lon": -80.7741604, "tags": {"amenity": "restaurant", "cuisine": "indian", "name": "Tandur Indian Kitchen"}}, {"type": "node", "id": 7635964509, "lat": 35.2452346, "lon": -80.8321403, "tags": {"addr:city": "Charlotte", "addr:housenumber": "1801", "addr:postcode": "28206", "addr:state": "NC", "addr:street": "North Graham Street", "amenity": "restaurant", "description": "Latin American Street Food", "name": "La Caseta", "opening_hours": "Su-Th 11:00-20:00; Fr,Sa 11:00-22:00", "outdoor_seating": "yes", "website": "https://www.lacasetaclt.com/"}}, {"type": "node", "id": 7644197770, "lat": 35.3019478, "lon": -80.749064, "tags": {"addr:city": "Charlotte", "addr:housenumber": "350", "addr:postcode": "28262", "addr:state": "NC", "addr:street": "East McCullough Drive", "amenity": "restaurant", "cuisine": "mediterranean", "name": "Le Kebab Mediterranean Grill", "opening_hours": "Mo-Th 11:00-22:30; Fr-Sa 11:00-23:00; Su 11:00-22:00", "website": "https://www.lekebabgrill.com/"}}, {"type": "node", "id": 7644197772, "lat": 35.3037555, "lon": -80.7492116, "tags": {"addr:city": "Charlotte", "addr:housenumber": "230", "addr:postcode": "28262", "addr:state": "NC", "addr:street": "East W T Harris Boulevard", "addr:unit": "A-7", "amenity": "restaurant", "cuisine": "vietnamese;sandwich", "name": "Banh Mi Brothers", "opening_hours": "Mo-Th 10:30-19:00; Fr-Sa 10:30-20:00; Su 11:00-19:00", "phone": "+1-704-900-7842", "website": "https://www.banhmibrothers.com/"}}, {"type": "node", "id": 7759208961, "lat": 35.3038065, "lon": -80.9369007, "tags": {"addr:city": "Charlotte", "addr:housenumber": "8400", "addr:postcode": "28216", "addr:state": "NC", "addr:street": "Bellhaven Boulevard", "addr:unit": "H", "amenity": "restaurant", "cuisine": "american", "name": "Sports Page Food & Spirits"}}, {"type": "node", "id": 7791696879, "lat": 35.3170224, "lon": -80.7402445, "tags": {"addr:city": "Charlotte", "addr:housenumber": "9605", "addr:postcode": "28262", "addr:state": "NC", "addr:street": "North Tryon Street", "addr:unit": "H", "amenity": "restaurant", "name": "Iron Dish Korean BBQ"}}, {"type": "node", "id": 7911325521, "lat": 35.3168116, "lon": -80.7717169, "tags": {"amenity": "restaurant", "brand": "Red Robin", "brand:wikidata": "Q7304886", "cuisine": "burger", "name": "Red Robin", "official_name": "Red Robin Gourmet Burgers and Brews"}}, {"type": "node", "id": 7924593036, "lat": 35.2440634, "lon": -80.8919889, "tags": {"amenity": "restaurant", "brand": "Pizza Hut", "brand:wikidata": "Q191615", "contact:website": "https://locations.pizzahut.com/nc/charlotte/3215-freedom-dr", "cuisine": "pizza", "delivery": "yes", "name": "Pizza Hut", "takeaway": "yes"}}, {"type": "node", "id": 8121149859, "lat": 35.2452929, "lon": -80.8322261, "tags": {"addr:city": "Charlotte", "addr:housenumber": "1801", "addr:postcode": "20206", "addr:state": "NC", "addr:street": "North Graham Street", "addr:unit": "Suite 101", "amenity": "restaurant", "diet:healthy": "yes", "diet:vegan": "yes", "diet:vegetarian": "yes", "name": "Soul Miner's Garden", "opening_hours": "Tu,We 11:00-14:00; Th,Fr 11:00-21:00", "website": "https://www.soulminersgardenfoodtruck.com/"}}, {"type": "node", "id": 8189138891, "lat": 35.1606276, "lon": -80.8500237, "tags": {"amenity": "restaurant", "cuisine": "italian", "name": "Portofino's"}}, {"type": "node", "id": 8413321534, "lat": 35.3194506, "lon": -80.9526815, "tags": {"amenity": "restaurant", "cuisine": "burger;wings", "name": "Chex Grill & Wings", "phone": "+19802074249", "website": "https://chexgrill.com/"}}, {"type": "node", "id": 8495029283, "lat": 35.1774674, "lon": -80.7986182, "tags": {"addr:city": "Charlotte", "addr:housenumber": "4340", "addr:postcode": "28211", "addr:state": "NC", "addr:street": "Colwick Road", "amenity": "restaurant", "cuisine": "chinese", "entrance": "yes", "name": "Shun Lee Palace"}}, {"type": "node", "id": 8524855835, "lat": 35.0398475, "lon": -80.8465287, "tags": {"addr:city": "Charlotte", "addr:housenumber": "15127", "addr:postcode": "28277", "addr:state": "NC", "addr:street": "Ballancroft Parkway", "addr:unit": "101", "amenity": "restaurant", "brand": "McAlister's Deli", "brand:wikidata": "Q17020829", "cuisine": "sandwich", "name": "McAlister's Deli"}}, {"type": "node", "id": 8764135696, "lat": 35.3410661, "lon": -80.7645395, "tags": {"amenity": "restaurant", "name": "HOUSE OF LENG"}}, {"type": "node", "id": 9095075397, "lat": 35.2411427, "lon": -80.8583297, "tags": {"amenity": "restaurant", "cuisine": "chicken", "name": "Chicken King"}}, {"type": "node", "id": 9099545841, "lat": 35.2267335, "lon": -80.8420625, "tags": {"amenity": "restaurant", "cuisine": "italian", "level": "0", "name": "Aria", "website": "https://www.ariacharlotte.com/"}}, {"type": "node", "id": 9099545870, "lat": 35.2272922, "lon": -80.8402846, "tags": {"addr:city": "Charlotte", "addr:housenumber": "214", "addr:postcode": "28202", "addr:state": "NC", "addr:street": "North College Street", "amenity": "restaurant", "cuisine": "southern", "name": "Mert's Heart And Soul"}}, {"type": "node", "id": 9099545873, "lat": 35.2267108, "lon": -80.8409945, "tags": {"addr:city": "Charlotte", "addr:housenumber": "150", "addr:postcode": "28202", "addr:state": "NC", "addr:street": "North College Street", "amenity": "restaurant", "cuisine": "american", "name": "Rooster's Wood-fired Kitchen"}}, {"type": "node", "id": 9135867616, "lat": 35.169875, "lon": -80.8510904, "tags": {"amenity": "restaurant", "name": "Viva Chicken"}}, {"type": "node", "id": 9175125281, "lat": 35.1800842, "lon": -80.8841682, "tags": {"amenity": "restaurant", "cuisine": "burger", "name": "Chubz Famous Chiliburgers"}}, {"type": "node", "id": 9175125282, "lat": 35.1802619, "lon": -80.8841808, "tags": {"amenity": "restaurant", "cuisine": "caribbean", "name": "Caribbean Hut"}}, {"type": "node", "id": 9175125283, "lat": 35.1804936, "lon": -80.8841225, "tags": {"amenity": "restaurant", "name": "Bankers Raw Bar"}}, {"type": "node", "id": 9175222741, "lat": 35.1790709, "lon": -80.8763455, "tags": {"amenity": "restaurant", "name": "Skyland Family Restaurant"}}, {"type": "node", "id": 9204979137, "lat": 35.2031248, "lon": -80.8457645, "tags": {"addr:city": "Charlotte", "addr:housenumber": "1231", "addr:postcode": "28203", "addr:state": "NC", "addr:street": "East Boulevard", "addr:unit": "A", "amenity": "restaurant", "cuisine": "mediterranean", "name": "Yafo Kitchen"}}, {"type": "node", "id": 9222825917, "lat": 35.174846, "lon": -80.8489056, "tags": {"addr:city": "Charlotte", "addr:housenumber": "4201", "addr:postcode": "28209", "addr:state": "NC", "addr:street": "Park Road", "amenity": "restaurant", "entrance": "yes", "name": "CO"}}, {"type": "node", "id": 9360453195, "lat": 35.3410962, "lon": -80.7645897, "tags": {"addr:city": "Charlotte", "addr:housenumber": "2712", "addr:postcode": "28262", "addr:state": "NC", "addr:street": "West Mallard Creek Church Road", "amenity": "restaurant", "brand": "Jet's Pizza", "brand:wikidata": "Q16997713", "cuisine": "pizza", "name": "Jet's Pizza"}}, {"type": "node", "id": 9371346517, "lat": 35.1998359, "lon": -80.8666563, "tags": {"addr:city": "Charlotte", "addr:housenumber": "2729", "addr:postcode": "28209", "addr:state": "NC", "addr:street": "South Boulevard", "addr:unit": "Suite D", "amenity": "restaurant", "cuisine": "seafood", "email": "waterman@eat704.com", "name": "The Waterman", "opening_hours": "Su-Th 11:00-22:00; Fr-Sa 11:00-23:00", "phone": "+1-704-275-5558", "website": "https://www.watermanclt.com"}}, {"type": "node", "id": 9472028293, "lat": 35.1940545, "lon": -80.7857278, "tags": {"addr:city": "Charlotte", "addr:housenumber": "4420", "addr:postcode": "28205", "addr:state": "NC", "addr:street": "Monroe Road", "addr:unit": "A", "amenity": "restaurant", "entrance": "yes", "name": "Common Market - Oakwold", "opening_hours": "Tu-Sa 08:00-22:00; Mo, Su 08:00-20:00", "website": "https://commonmarketisgood.com/oakwold/"}}, {"type": "node", "id": 9550362709, "lat": 35.1610501, "lon": -80.8493057, "tags": {"amenity": "restaurant", "cuisine": "mexican", "name": "1900 Mexican"}}, {"type": "node", "id": 9634125317, "lat": 35.2258049, "lon": -80.8465281, "tags": {"addr:city": "Charlotte", "addr:housenumber": "128", "addr:postcode": "28202", "addr:state": "NC", "addr:street": "Brevard Court", "amenity": "restaurant", "cuisine": "vietnamese", "name": "Pudina Pho"}}, {"type": "node", "id": 9634125318, "lat": 35.2259083, "lon": -80.8469057, "tags": {"addr:city": "Charlotte", "addr:housenumber": "145", "addr:postcode": "28202", "addr:state": "NC", "addr:street": "Brevard Court", "amenity": "restaurant", "cuisine": "greek", "name": "Nefelie's"}}, {"type": "node", "id": 9690923967, "lat": 35.3099275, "lon": -80.7478454, "tags": {"amenity": "restaurant", "brand": "CAVA", "brand:wikidata": "Q85751038", "cuisine": "mediterranean", "name": "CAVA"}}, {"type": "node", "id": 9710477417, "lat": 35.1598264, "lon": -80.8758026, "tags": {"addr:housenumber": "5615", "addr:postcode": "28217", "addr:street": "South Boulevard", "amenity": "restaurant", "name": "Vietnam Grill", "opening_hours": "Mo-Fr 11:00-21:00; Sa 00:00-21:00", "phone": "(704)525-2408", "website": "https://vietnamgrille.com/contact.html"}}, {"type": "node", "id": 9823244832, "lat": 35.310722, "lon": -80.7460299, "tags": {"addr:housenumber": "9325", "addr:street": "JW Clay Blvd", "amenity": "restaurant", "name": "Sabor Latin Street Grill", "website": "https://www.saborlatingrill.com/"}}, {"type": "node", "id": 9842012385, "lat": 35.2105809, "lon": -80.8633085, "tags": {"amenity": "restaurant", "cuisine": "tapas;brunch", "diet:pescetarian": "yes", "diet:vegan": "yes", "diet:vegetarian": "yes", "name": "PARA", "phone": "+1 704-812-0607", "website": "https://www.paraclt.com/"}}, {"type": "node", "id": 9842012386, "lat": 35.2105809, "lon": -80.8634238, "tags": {"addr:city": "Charlotte", "addr:housenumber": "235", "addr:postcode": "28203", "addr:state": "NC", "addr:street": "West Tremont Avenue", "addr:unit": "101", "amenity": "restaurant", "cuisine": "burger", "name": "Bang Bang Burgers", "phone": "+1 980 225 1016", "website": "https://bangbangburgersclt.com"}}, {"type": "node", "id": 9848012360, "lat": 35.3196469, "lon": -80.9527702, "tags": {"addr:city": "Charlotte", "addr:housenumber": "2910", "addr:postcode": "28214", "addr:state": "NC", "addr:street": "Mount Holly-Huntersville Road", "amenity": "restaurant", "email": "info@jackieboys.com", "name": "Jackie Boys Grill & Tap", "opening_hours": "Mo-Su 11:00-01:00", "phone": "9802070376", "website": "https://jackieboys.com"}}, {"type": "node", "id": 9873301441, "lat": 35.210813, "lon": -80.8620175, "tags": {"addr:city": "Charlotte", "addr:housenumber": "200", "addr:postcode": "28203", "addr:state": "NC", "addr:street": "West Tremont Avenue", "addr:unit": "#101", "amenity": "restaurant", "email": "info@qcpourhouse.com", "name": "QC Pour House", "opening_hours": "Mo-Fr 11:30-24:00; Sa-Su 11:00-24:00", "phone": "980-219-7303", "website": "www.qcpourhouse.com"}}, {"type": "node", "id": 9897370378, "lat": 35.3340779, "lon": -80.7133472, "tags": {"addr:city": "Charlotte", "addr:housenumber": "11524", "addr:postcode": "28262", "addr:state": "NC", "addr:street": "North Tryon Street", "addr:unit": "#9", "amenity": "restaurant", "name": "Alpha Omega Grill & Pizzeria", "opening_hours": "Mo - Fr 11:00-21:30, Sa 11:00-21:00", "payment:american_express": "yes", "payment:cash": "yes", "payment:discover_card": "yes", "payment:mastercard": "yes", "payment:visa": "yes", "phone": "704-594-9222", "website": "https://alphaomegagrill.com"}}, {"type": "node", "id": 9945645829, "lat": 35.2098651, "lon": -80.835705, "tags": {"addr:city": "Charlotte", "addr:housenumber": "601", "addr:postcode": "28204", "addr:state": "NC", "addr:street": "South Kings Drive", "addr:unit": "Suite A", "amenity": "restaurant", "cuisine": "italian", "name": "Mama Ricotta's", "phone": "+1 (704) 343-0148", "website": "https://www.mamaricottas.com/", "website:menu": "https://www.mamaricottas.com/menus/"}}, {"type": "node", "id": 9945667027, "lat": 35.2134846, "lon": -80.8435968, "tags": {"addr:city": "Charlotte", "addr:housenumber": "911", "addr:postcode": "28210", "addr:state": "NC", "addr:street": "East Morehead Street", "amenity": "restaurant", "cuisine": "american;burger", "name": "Dilworth Neighborhood Grille", "website": "https://www.dilworthgrille.com/", "website:menu": "http://www.dilworthgrille.com/menu"}}, {"type": "node", "id": 9945982768, "lat": 35.0960568, "lon": -80.7856726, "tags": {"amenity": "restaurant", "cuisine": "latin_american", "name": "Tacos 4 Life", "website": "https://www.tacos4life.com/"}}, {"type": "node", "id": 9949551834, "lat": 35.2142429, "lon": -80.8269533, "tags": {"addr:city": "Charlotte", "addr:housenumber": "1523", "addr:postcode": "28204", "addr:state": "NC", "addr:street": "Elizabeth Avenue", "amenity": "restaurant", "cuisine": "mexican", "name": "1900 Mexican Grill", "opening_hours": "Mo-Th 11:00-22:00; Fr-Sa 11:00-23:00; Su 12:00-21:00", "phone": "+1 (704) 334-4677", "website": "https://1900mexicangrill.com/", "website:menu": "https://1900mexicangrill.com/1900menu2020.pdf"}}, {"type": "node", "id": 9949591668, "lat": 35.2141229, "lon": -80.8267575, "tags": {"addr:city": "Charlotte", "addr:housenumber": "1523", "addr:postcode": "28204", "addr:state": "NC", "addr:street": "Elizabeth Avenue", "addr:unit": "Suite 130", "amenity": "restaurant", "cuisine": "sushi", "name": "Rockin' Rolls Sushi", "opening_hours": "Mo-Su 11:00-21:30; Tu closed", "phone": "+1 (704) 733-9007", "website": "https://www.rockinrollssushi.com/", "website:menu": "https://www.rockinrollssushi.com/menu-landing"}}, {"type": "node", "id": 9978985868, "lat": 35.2944404, "lon": -80.7448151, "tags": {"addr:city": "Charlotte", "addr:housenumber": "850", "addr:postcode": "28213", "addr:state": "NC", "addr:street": "Chancellor Park Drive", "addr:unit": "C", "amenity": "restaurant", "cuisine": "international", "name": "PUPUSA 503 Salvadoran Deli", "phone": "+19802070613", "website": "https://www.pupusa503clt.com/"}}, {"type": "node", "id": 9978985869, "lat": 35.2943419, "lon": -80.7447288, "tags": {"addr:city": "Charlotte", "addr:housenumber": "850", "addr:postcode": "28213", "addr:state": "NC", "addr:street": "Chancellor Park Drive", "addr:unit": "D", "amenity": "restaurant", "brand": "Pizza Hut", "brand:wikidata": "Q191615", "contact:website": "https://locations.pizzahut.com/nc/charlotte/850-chancellor-park-dr", "cuisine": "pizza", "name": "Pizza Hut", "phone": "+17045979300"}}, {"type": "node", "id": 9983954414, "lat": 35.2209422, "lon": -80.8150598, "tags": {"amenity": "restaurant", "entrance": "shop", "name": "Midwood Smokehouse", "opening_hours": "Su-We 11:00-22:00; Th-Sa 11:00-23:00"}}, {"type": "node", "id": 10002969458, "lat": 35.1520447, "lon": -80.8416652, "tags": {"amenity": "restaurant", "brand": "First Watch", "brand:wikidata": "Q5454064", "cuisine": "american;breakfast", "name": "First Watch", "official_name": "First Watch The Daytime Cafe"}}, {"type": "node", "id": 10013948992, "lat": 35.2014181, "lon": -80.8436945, "tags": {"addr:city": "Charlotte", "addr:housenumber": "1315", "addr:postcode": "28203", "addr:state": "NC", "addr:street": "East Boulevard", "amenity": "restaurant", "name": "Red@28th", "website": "https://redat28th.com/"}}, {"type": "node", "id": 10013948993, "lat": 35.2016044, "lon": -80.8439348, "tags": {"addr:city": "Charlotte", "addr:housenumber": "1315", "addr:postcode": "28203", "addr:state": "NC", "addr:street": "East Boulevard", "addr:unit": "Suite 130", "amenity": "restaurant", "cuisine": "sushi", "name": "Konnichiwa", "website": "https://konnichiwacharlotte.com/"}}, {"type": "node", "id": 10023302184, "lat": 35.2942131, "lon": -80.739899, "tags": {"addr:city": "Charlotte", "addr:housenumber": "1001", "addr:postcode": "28213", "addr:state": "NC", "addr:street": "E W.T. Harris Blvd", "addr:unit": "Ste A", "amenity": "restaurant", "name": "Monterrey Mexican Restaurant", "opening_hours": "Mo-Su 11:00-22:00", "phone": "+1-704-593-0167", "website": "https://www.monterreyuncc.com/"}}, {"type": "node", "id": 10112353506, "lat": 35.3105285, "lon": -80.7470089, "tags": {"amenity": "restaurant", "brand": "Blaze Pizza", "brand:wikidata": "Q23016666", "cuisine": "pizza", "name": "Blaze Pizza"}}, {"type": "node", "id": 10112353508, "lat": 35.3103955, "lon": -80.7468143, "tags": {"amenity": "restaurant", "cuisine": "barbecue", "name": "City Barbeque"}}, {"type": "node", "id": 10112353539, "lat": 35.3096931, "lon": -80.7478913, "tags": {"amenity": "restaurant", "brand": "Piada Italian Street Food", "brand:wikidata": "Q7190020", "cuisine": "italian", "name": "Piada Italian Street Food"}}, {"type": "node", "id": 10112469329, "lat": 35.3102621, "lon": -80.7494921, "tags": {"amenity": "restaurant", "name": "Famous Toastery"}}, {"type": "node", "id": 10112469330, "lat": 35.3102499, "lon": -80.74928, "tags": {"amenity": "restaurant", "cuisine": "chinese", "name": "House of Leng"}}, {"type": "node", "id": 10122872234, "lat": 35.2124886, "lon": -80.8358679, "tags": {"addr:city": "Charlotte", "addr:housenumber": "1100", "addr:postcode": "28204", "addr:state": "NC", "addr:street": "Metropolitan Avenue", "addr:unit": "125", "amenity": "restaurant", "name": "Dressler's", "phone": "+1 (704) 909-6295", "website": "https://www.dresslersrestaurant.com/"}}, {"type": "node", "id": 10136201298, "lat": 35.2422571, "lon": -80.8591791, "tags": {"addr:city": "Charlotte", "addr:housenumber": "1800", "addr:postcode": "28208", "addr:state": "NC", "addr:street": "Rozzelles Ferry Road", "addr:unit": "Suite 1808", "amenity": "restaurant", "brand": "Jet's Pizza", "brand:wikidata": "Q16997713", "cuisine": "pizza", "name": "Jet's Pizza", "phone": "+1 (704) 333-7631", "website": "https://ordering.jetspizza.com/?uniqueStoreIdentifier=NC014#/"}}, {"type": "node", "id": 10155015141, "lat": 35.2132853, "lon": -80.834755, "tags": {"addr:city": "Charlotte", "addr:housenumber": "1055", "addr:postcode": "28204", "addr:state": "NC", "addr:street": "Metropolitan Avenue", "addr:unit": "Suite 130", "amenity": "restaurant", "cuisine": "pizza", "name": "Pizzeria Omaggio", "phone": "+1 (704) 370-0777", "website": "https://www.pizzeriaomaggio.com/"}}, {"type": "node", "id": 10155015144, "lat": 35.2133524, "lon": -80.8350815, "tags": {"addr:city": "Charlotte", "addr:housenumber": "1055", "addr:postcode": "28204", "addr:state": "NC", "addr:street": "Metropolitan Avenue", "addr:unit": "Suite 110", "amenity": "restaurant", "brand": "CAVA", "brand:wikidata": "Q85751038", "cuisine": "mediterranean", "name": "CAVA"}}, {"type": "node", "id": 10166918598, "lat": 35.2118948, "lon": -80.8338046, "tags": {"addr:city": "Charlotte", "addr:housenumber": "345", "addr:postcode": "28204", "addr:state": "NC", "addr:street": "South Kings Drive", "amenity": "restaurant", "cuisine": "pizza", "name": "Uncle Maddio's Pizza"}}, {"type": "node", "id": 10353935898, "lat": 35.2274526, "lon": -80.8737405, "tags": {"addr:city": "Charlotte", "addr:housenumber": "2001", "addr:postcode": "28208", "addr:state": "NC", "addr:street": "West Morehead Street", "amenity": "restaurant", "name": "Counter-", "website": "https://www.counterclt.com/"}}, {"type": "node", "id": 10802248505, "lat": 35.2478558, "lon": -80.8041412, "tags": {"addr:city": "Charlotte", "addr:housenumber": "3306", "addr:postcode": "28205", "addr:state": "NC", "addr:street": "North Davidson Street", "amenity": "restaurant", "cuisine": "latin_food", "entrance": "yes", "name": "Salud Cervezeria"}}, {"type": "node", "id": 10828034332, "lat": 35.2123744, "lon": -80.8359012, "tags": {"addr:city": "Charlotte", "addr:housenumber": "1100", "addr:postcode": "28204", "addr:state": "NC", "addr:street": "Metropolitan Avenue", "addr:unit": "120", "amenity": "restaurant", "cuisine": "sushi", "name": "Pisces Sushi", "phone": "+1-704-334-0009"}}, {"type": "node", "id": 10844312939, "lat": 35.2029454, "lon": -80.7608199, "tags": {"addr:city": "Charlotte", "addr:housenumber": "3117", "addr:postcode": "28205", "addr:state": "NC", "addr:street": "North Sharon Amity Road", "amenity": "restaurant", "cuisine": "middle_eastern;lebanese;mediterranean", "entrance": "shop", "name": "La Shish Kabob", "phone": "+1 704 567 7900", "website": "https://lashishkabob.org/"}}, {"type": "node", "id": 10861476224, "lat": 35.2020235, "lon": -80.8444723, "tags": {"amenity": "restaurant", "cuisine": "mexican", "name": "Bakersfield"}}, {"type": "node", "id": 10874217455, "lat": 35.2471529, "lon": -80.8056541, "tags": {"addr:city": "Charlotte", "addr:country": "US", "addr:housenumber": "3205", "addr:postcode": "28205", "addr:state": "NC", "addr:street": "North Davidson Street", "amenity": "restaurant", "cuisine": "mexican", "entrance": "yes", "name": "Sabor Latin Street Grill", "opening_hours": "Su-Th 11:00-22:00, Fr-Sa 11:00-24:00", "phone": "+1.980.207.3589", "website": "https://www.saborlatingrill.com/locations/", "wheelchair": "yes"}}, {"type": "node", "id": 10926907419, "lat": 44.3059976, "lon": -73.2453321, "tags": {"addr:city": "Charlotte", "addr:housenumber": "3488", "addr:state": "VT", "addr:street": "Ethan Allen Highway", "amenity": "restaurant", "contact:facebook": "https://www.facebook.com/Backyardbistrovt", "cuisine": "bistro;pizza;american", "name": "Backyard Bistro", "opening_hours": "Tu-Th 16:00-20:30; Fr-Sa 16:00-21:00; Su 16:00-20:30", "outdoor_seating": "yes", "phone": "+18024252596", "website": "https://www.backyardbistrovt.com/", "wheelchair": "yes"}}, {"type": "node", "id": 10965747074, "lat": 35.2258726, "lon": -80.8432318, "tags": {"amenity": "restaurant", "brand": "McAlister's Deli", "brand:wikidata": "Q17020829", "cuisine": "sandwich", "level": "1", "name": "McAlister's Deli"}}, {"type": "node", "id": 10968443160, "lat": 35.2279553, "lon": -80.844195, "tags": {"amenity": "restaurant", "cuisine": "southern;american", "name": "The King\u2019s Kitchen"}}, {"type": "node", "id": 10968443161, "lat": 35.2288036, "lon": -80.8430168, "tags": {"amenity": "restaurant", "name": "Church & Union"}}, {"type": "node", "id": 10971338340, "lat": 35.2282816, "lon": -80.8419355, "tags": {"amenity": "restaurant", "name": "Capital Grille"}}, {"type": "node", "id": 10971338342, "lat": 35.2265155, "lon": -80.8419818, "tags": {"amenity": "restaurant", "cuisine": "italian", "name": "Cicchetti"}}, {"type": "node", "id": 10971338343, "lat": 35.2287475, "lon": -80.8411196, "tags": {"amenity": "restaurant", "name": "The Asbury"}}, {"type": "node", "id": 10971338346, "lat": 35.2280288, "lon": -80.8416252, "tags": {"amenity": "restaurant", "name": "204 North"}}, {"type": "node", "id": 10972319448, "lat": 35.2293175, "lon": -80.8397309, "tags": {"amenity": "restaurant", "name": "Duckworth\u2019s"}}, {"type": "node", "id": 10981654685, "lat": 35.2336202, "lon": -80.8381676, "tags": {"amenity": "restaurant", "indoor_seating": "yes", "name": "Poplar", "outdoor_seating": "yes"}}, {"type": "node", "id": 11070030884, "lat": 35.2484013, "lon": -80.805838, "tags": {"addr:city": "Charlotte", "addr:housenumber": "416", "addr:postcode": "28206", "addr:state": "NC", "addr:street": "East 36th Street", "addr:unit": "600", "amenity": "restaurant", "cuisine": "italian", "entrance": "yes", "name": "Figo36"}}, {"type": "node", "id": 11077809175, "lat": 35.2233786, "lon": -80.8466478, "tags": {"amenity": "restaurant", "cuisine": "indian", "name": "Exotica"}}, {"type": "node", "id": 11093041436, "lat": 35.2247396, "lon": -80.8471184, "tags": {"addr:city": "Charlotte", "addr:housenumber": "400", "addr:postcode": "28202", "addr:state": "NC", "addr:street": "South Tryon Street", "amenity": "restaurant", "cuisine": "french", "name": "Coquette", "website": "https://www.coquetteclt.com"}}, {"type": "node", "id": 11093041438, "lat": 35.2291243, "lon": -80.8456027, "tags": {"amenity": "restaurant", "cuisine": "mexican", "name": "Que Onda"}}, {"type": "node", "id": 11102351569, "lat": 35.2115517, "lon": -80.86017, "tags": {"amenity": "restaurant", "cuisine": "tapas", "name": "Barcelona", "opening_hours": "Mo-Th 16:00-23:00; Fr 16:00-24:00; Sa 12:00-24:00; Su 12:00-21:00", "outdoor_seating": "yes", "website": "https://barcelonawinebar.com/location/charlotte/"}}, {"type": "node", "id": 11102351591, "lat": 35.2115306, "lon": -80.8614828, "tags": {"amenity": "restaurant", "cuisine": "pizza", "name": "Emmy Squared Pizza"}}, {"type": "node", "id": 11102351593, "lat": 35.2108919, "lon": -80.8605313, "tags": {"amenity": "restaurant", "cuisine": "asian", "name": "Hawkers"}}, {"type": "node", "id": 11158426314, "lat": 35.199442, "lon": -80.8689062, "tags": {"addr:city": "Charlotte", "addr:housenumber": "141", "addr:postcode": "28209", "addr:state": "NC", "addr:street": "New Bern Street", "amenity": "restaurant", "name": "Eight + Sand Kitchen", "phone": "+17043709696", "website": "https://eightandsandkitchen.com/"}}, {"type": "node", "id": 11158426317, "lat": 35.1991985, "lon": -80.8679367, "tags": {"addr:city": "Charlotte", "addr:housenumber": "155", "addr:postcode": "28209", "addr:state": "NC", "addr:street": "New Bern Street", "amenity": "restaurant", "cuisine": "american", "name": "Link & Pin", "phone": "+19809391188", "website": "https://www.linkandpin.com/"}}, {"type": "node", "id": 11238268720, "lat": 35.2453583, "lon": -80.8330108, "tags": {"addr:city": "Charlotte", "addr:housenumber": "701", "addr:postcode": "28206", "addr:state": "NC", "addr:street": "Razades Way", "addr:unit": "105", "amenity": "restaurant", "name": "Room Service", "website": "https://www.instagram.com/roomserviceclt/"}}, {"type": "node", "id": 11289651370, "lat": 35.2169007, "lon": -80.8556447, "tags": {"addr:city": "Charlotte", "addr:housenumber": "1422", "addr:postcode": "28203", "addr:state": "NC", "addr:street": "South Tryon Street", "addr:unit": "Suite 140", "amenity": "restaurant", "cuisine": "chicken;sandwich;salad", "name": "Summerbird", "phone": "+19809605003", "website": "https://www.eatsummerbird.com/"}}, {"type": "node", "id": 11289651371, "lat": 35.2170892, "lon": -80.8555008, "tags": {"addr:city": "Charlotte", "addr:housenumber": "1422", "addr:postcode": "28203", "addr:state": "NC", "addr:street": "South Tryon Street", "addr:unit": "Suite 130", "amenity": "restaurant", "cuisine": "american", "name": "STIR", "phone": "+19802090277", "website": "https://stircharlotte.com/"}}, {"type": "node", "id": 11289651372, "lat": 35.217342, "lon": -80.855256, "tags": {"addr:housenumber": "1414", "addr:street": "South Tryon Street", "addr:unit": "Suite 140", "amenity": "restaurant", "cuisine": "italian", "name": "North Italia", "opening_hours": "Mo-Th 11:00-22:00; Fr 11:00-23:00; Sa 10:00-23:00; Su 10:00-22:00", "phone": "+19802798900", "website": "https://www.northitalia.com/locations/charlotte-nc/"}}, {"type": "node", "id": 11289651373, "lat": 35.2175243, "lon": -80.855059, "tags": {"addr:city": "Charlotte", "addr:housenumber": "1414", "addr:postcode": "28203", "addr:state": "NC", "addr:street": "South Tryon Street", "addr:unit": "Suite 150", "amenity": "restaurant", "name": "Vitality Bowls", "phone": "7049007745", "website": "https://vitalitybowls.com/locations/charlotte-acai-bowls"}}, {"type": "node", "id": 11291317376, "lat": 35.2162826, "lon": -80.8562065, "tags": {"addr:city": "Charlotte", "addr:housenumber": "1440", "addr:postcode": "28203", "addr:state": "NC", "addr:street": "South Tryon Street", "addr:unit": "Suite 100", "amenity": "restaurant", "name": "VANA", "opening_hours": "closed", "phone": "+19808195913", "website:menu": "http://places.singleplatform.com/vana/menu?ref=google"}}, {"type": "node", "id": 11360379001, "lat": 35.2253941, "lon": -80.8424274, "tags": {"amenity": "restaurant", "cuisine": "japanese", "name": "Fuji Hibachi & Teriyaki"}}, {"type": "node", "id": 11360379002, "lat": 35.225131, "lon": -80.8431687, "tags": {"addr:city": "Charlotte", "addr:housenumber": "201", "addr:postcode": "28202", "addr:state": "NC", "addr:street": "South College Street", "amenity": "restaurant", "cuisine": "steak_house", "name": "STK Charlotte"}}, {"type": "node", "id": 11360379003, "lat": 35.2246682, "lon": -80.8434796, "tags": {"addr:city": "Charlotte", "addr:housenumber": "201", "addr:postcode": "28202", "addr:state": "NC", "addr:street": "South College Street", "amenity": "restaurant", "cuisine": "american;greek", "name": "Showmars", "opening_hours": "Mo-Fr 07:30-15:00"}}, {"type": "node", "id": 11360440680, "lat": 35.2261055, "lon": -80.8443458, "tags": {"amenity": "restaurant", "cuisine": "italian", "name": "The Bella Ciao"}}, {"type": "node", "id": 11362664694, "lat": 35.1865857, "lon": -80.8220313, "tags": {"addr:city": "Charlotte", "addr:housenumber": "1522", "addr:postcode": "28207", "addr:state": "NC", "addr:street": "Providence Road", "amenity": "restaurant", "cuisine": "american;burger;sandwich", "name": "Providence Road Sundries", "opening_hours": "Su-We 11:00-21:00; Th-Sa 11:00-22:00", "phone": "+1-704-366-4467", "website": "https://providenceroadsundries.com"}}, {"type": "node", "id": 11374017446, "lat": 35.171116, "lon": -80.8076868, "tags": {"addr:city": "Charlotte", "addr:housenumber": "2907", "addr:postcode": "28211", "addr:state": "NC", "addr:street": "Providence Road", "addr:unit": "Suite 100", "amenity": "restaurant", "cuisine": "italian", "name": "Mezzanotte", "website": "https://conterestaurantgroup.com/mezzanotte/"}}, {"type": "node", "id": 11374017447, "lat": 35.1710754, "lon": -80.8075853, "tags": {"addr:city": "Charlotte", "addr:housenumber": "2907", "addr:postcode": "28211", "addr:state": "NC", "addr:street": "Providence Road", "addr:unit": "Suite 101", "amenity": "restaurant", "cuisine": "sushi", "name": "Omakase", "phone": "+1-704-754-4315", "website": "https://omakaseclt.com/"}}, {"type": "node", "id": 11374017449, "lat": 35.1718573, "lon": -80.806265, "tags": {"addr:city": "Charlotte", "addr:housenumber": "617", "addr:postcode": "28211", "addr:state": "NC", "addr:street": "South Sharon Amity Road", "amenity": "restaurant", "cuisine": "american", "name": "Eddie's Place", "phone": "+1-704-442-0147", "website": "https://www.eddiesplacerestaurant.com"}}, {"type": "node", "id": 11374017494, "lat": 35.1714411, "lon": -80.806792, "tags": {"addr:city": "Charlotte", "addr:housenumber": "705", "addr:postcode": "28211", "addr:state": "NC", "addr:street": "South Sharon Amity Road", "amenity": "restaurant", "cuisine": "chicken", "name": "Leroy Fox", "phone": "+1-704-366-3232", "website": "https://leroyfox.com/"}}, {"type": "node", "id": 11381871681, "lat": 35.1399957, "lon": -80.9345935, "tags": {"addr:city": "Charlotte", "addr:housenumber": "8506", "addr:postcode": "28273", "addr:state": "NC", "addr:street": "South Tryon Street", "addr:unit": "102-C", "amenity": "restaurant", "brand": "Pizza Hut", "brand:wikidata": "Q191615", "cuisine": "pizza", "name": "Pizza Hut"}}, {"type": "node", "id": 11384972383, "lat": 35.1051296, "lon": -80.9871258, "tags": {"amenity": "restaurant", "cuisine": "greek", "name": "Greco Fresh Grille"}}, {"type": "node", "id": 11384972384, "lat": 35.1050016, "lon": -80.9873834, "tags": {"amenity": "restaurant", "cuisine": "sushi", "name": "Masa Sushi"}}, {"type": "node", "id": 11393141612, "lat": 35.1132586, "lon": -80.920004, "tags": {"amenity": "restaurant", "cuisine": "mexican", "name": "El Buen Gusto"}}, {"type": "node", "id": 11438963634, "lat": 35.1950186, "lon": -80.8258417, "tags": {"amenity": "restaurant", "cuisine": "italian", "name": "Volo Ristorante", "website": "https://voloclt.com/"}}, {"type": "node", "id": 11438974665, "lat": 35.201368, "lon": -80.8247409, "tags": {"amenity": "restaurant", "cuisine": "thai", "name": "Deejai"}}, {"type": "node", "id": 11439783804, "lat": 35.2066174, "lon": -80.8353992, "tags": {"amenity": "restaurant", "cuisine": "indian", "name": "Maharani Indian Cuisine", "website": "https://maharanicharlotte.com/"}}, {"type": "node", "id": 11439783808, "lat": 35.2070055, "lon": -80.8352226, "tags": {"addr:city": "Charlotte", "addr:housenumber": "901", "addr:postcode": "28204", "addr:state": "NC", "addr:street": "South Kings Drive", "amenity": "restaurant", "cuisine": "pizza", "name": "Wheelz Pizza", "website": "https://wheelzpizza.com/"}}, {"type": "node", "id": 11439783812, "lat": 35.2068251, "lon": -80.8348704, "tags": {"alt_name": "Melting Pot", "amenity": "restaurant", "brand": "The Melting Pot", "brand:wikidata": "Q7750948", "cuisine": "fondue", "name": "The Melting Pot"}}, {"type": "node", "id": 11448062376, "lat": 35.1902236, "lon": -80.9222913, "tags": {"amenity": "restaurant", "cuisine": "seafood", "name": "Krustaceans Seafood"}}, {"type": "node", "id": 11448062378, "lat": 35.190191, "lon": -80.9220338, "tags": {"amenity": "restaurant", "cuisine": "tex-mex", "name": "Tacos & Mas"}}, {"type": "node", "id": 11448062379, "lat": 35.1902391, "lon": -80.9219509, "tags": {"amenity": "restaurant", "cuisine": "american", "name": "Nana Morrison's Soul Food"}}, {"type": "node", "id": 11448062381, "lat": 35.1904121, "lon": -80.9218541, "tags": {"amenity": "restaurant", "cuisine": "japanese", "name": "Hibachi Express"}}, {"type": "node", "id": 11465719946, "lat": 35.212446, "lon": -80.8275831, "tags": {"amenity": "restaurant", "cuisine": "chinese", "name": "88 China Bistro"}}, {"type": "node", "id": 11466378295, "lat": 35.213153, "lon": -80.8183615, "tags": {"addr:city": "Charlotte", "addr:housenumber": "1941", "addr:postcode": "28204", "addr:state": "NC", "addr:street": "East 7th Street", "amenity": "restaurant", "cuisine": "noodle", "name": "Menya Noodle Counter", "website": "https://www.menyanoodles.com"}}, {"type": "node", "id": 11466378304, "lat": 35.2122478, "lon": -80.8171142, "tags": {"amenity": "restaurant", "cuisine": "chinese", "name": "Ho Ho Cherry House"}}, {"type": "node", "id": 11466378307, "lat": 35.2125275, "lon": -80.8172096, "tags": {"amenity": "restaurant", "cuisine": "burger", "name": "Bang Bang Burgers"}}, {"type": "node", "id": 11483254445, "lat": 35.2152515, "lon": -80.8567631, "tags": {"amenity": "restaurant", "brand": "Condado Tacos", "brand:wikidata": "Q118640152", "cuisine": "mexican", "name": "Condado Tacos"}}, {"type": "node", "id": 11483254447, "lat": 35.2156979, "lon": -80.8567804, "tags": {"amenity": "restaurant", "cuisine": "sushi", "name": "Sushi Hana", "website": "https://sushihanaclt.com="}}, {"type": "node", "id": 11483254448, "lat": 35.2152861, "lon": -80.8577064, "tags": {"amenity": "restaurant", "name": "Early Girl Eatery", "website": "https://earlygirleatery.com"}}, {"type": "node", "id": 11506318368, "lat": 35.2126381, "lon": -80.8298668, "tags": {"amenity": "restaurant", "cuisine": "american", "name": "Midtown Tavern"}}, {"type": "node", "id": 11514655805, "lat": 35.2338912, "lon": -80.8768088, "tags": {"addr:city": "Charlotte", "addr:housenumber": "2216", "addr:postcode": "28208", "addr:state": "NC", "addr:street": "Freedom Drive", "amenity": "restaurant", "cuisine": "barbecue", "name": "Noble Smoke"}}, {"type": "node", "id": 11514655806, "lat": 35.2335909, "lon": -80.8764979, "tags": {"addr:city": "Charlotte", "addr:housenumber": "2200", "addr:postcode": "28208", "addr:state": "NC", "addr:street": "Freedom Drive", "amenity": "restaurant", "name": "Bossy Beulah's"}}, {"type": "node", "id": 11514694817, "lat": 35.2331986, "lon": -80.8730855, "tags": {"addr:city": "Charlotte", "addr:housenumber": "2135", "addr:postcode": "28208", "addr:state": "NC", "addr:street": "Thrift Road", "addr:unit": "101", "amenity": "restaurant", "cuisine": "pizza", "name": "Pizza Baby"}}, {"type": "node", "id": 11514694819, "lat": 35.2339957, "lon": -80.8729425, "tags": {"addr:city": "Charlotte", "addr:housenumber": "2200", "addr:postcode": "28208", "addr:state": "NC", "addr:street": "Thrift Road", "addr:unit": "2", "amenity": "restaurant", "cuisine": "chinese", "name": "Sun's Kitchen"}}, {"type": "node", "id": 11514694820, "lat": 35.2338705, "lon": -80.8728777, "tags": {"addr:city": "Charlotte", "addr:housenumber": "2200", "addr:postcode": "28208", "addr:state": "NC", "addr:street": "Thrift Road", "amenity": "restaurant", "name": "Crav\u2019n Caribbean"}}, {"type": "node", "id": 11514694823, "lat": 35.2340694, "lon": -80.8727534, "tags": {"addr:city": "Charlotte", "addr:housenumber": "2200", "addr:postcode": "28208", "addr:state": "NC", "addr:street": "Thrift Road", "amenity": "restaurant", "name": "Bankers Kitchen"}}, {"type": "node", "id": 11514694824, "lat": 35.2339721, "lon": -80.872704, "tags": {"addr:city": "Charlotte", "addr:housenumber": "2200", "addr:postcode": "28208", "addr:state": "NC", "addr:street": "Thrift Road", "amenity": "restaurant", "name": "Restaurant Constance"}}, {"type": "node", "id": 11514694825, "lat": 35.2338037, "lon": -80.8727756, "tags": {"addr:city": "Charlotte", "addr:housenumber": "2200", "addr:postcode": "28208", "addr:state": "NC", "addr:street": "Thrift Road", "amenity": "restaurant", "name": "La Isla Tropical"}}, {"type": "node", "id": 11533270787, "lat": 35.2201883, "lon": -80.8295982, "tags": {"addr:city": "Charlotte", "addr:housenumber": "425", "addr:postcode": "28204", "addr:state": "NC", "addr:street": "North Kings Drive", "amenity": "restaurant", "name": "Greenway Restaurant", "website": "https://www.cpcc.edu/student-experience/dining-and-vending/greenway-restaurant"}}, {"type": "node", "id": 11544946576, "lat": 35.1925456, "lon": -80.873235, "tags": {"amenity": "restaurant", "cuisine": "korean", "name": "Seoul Poke Bowl", "website": "https://seoulpokebowl.com"}}, {"type": "node", "id": 11544946600, "lat": 35.1897078, "lon": -80.8749841, "tags": {"amenity": "restaurant", "brand": "Pizza Hut", "brand:wikidata": "Q191615", "cuisine": "pizza", "name": "Pizza Hut"}}, {"type": "node", "id": 11546964906, "lat": 35.2004079, "lon": -80.8662684, "tags": {"addr:city": "Charlotte", "addr:housenumber": "2725", "addr:postcode": "28209", "addr:state": "NC", "addr:street": "South Boulevard", "addr:unit": "Suite A", "amenity": "restaurant", "brand": "Maple Street Biscuit Company", "brand:wikidata": "Q97104481", "cuisine": "breakfast", "name": "Maple Street Biscuit Company", "opening_hours": "Mo-Fr 07:00-14:00; Sa-Su 07:00-15:00", "phone": "+1-704-559-6550", "website": "https://www.maplestreetbiscuits.com"}}, {"type": "node", "id": 11548460020, "lat": 35.1976096, "lon": -80.8521224, "tags": {"amenity": "restaurant", "cuisine": "burger", "name": "Fat Cat Burgers1"}}, {"type": "node", "id": 11548460022, "lat": 35.1976079, "lon": -80.852327, "tags": {"amenity": "restaurant", "cuisine": "italian", "name": "Fiamma Ristorante", "website": "https://www.fiammacharlottenc.com"}}, {"type": "node", "id": 11548460025, "lat": 35.1976055, "lon": -80.8528156, "tags": {"amenity": "restaurant", "cuisine": "sushi;seafood", "name": "Ru San's", "website": "https://rusans.com"}}, {"type": "node", "id": 11548460029, "lat": 35.1969651, "lon": -80.8520206, "tags": {"amenity": "restaurant", "cuisine": "mexican", "name": "Taco Mama"}}, {"type": "node", "id": 11548460033, "lat": 35.1984753, "lon": -80.8521738, "tags": {"amenity": "restaurant", "cuisine": "breakfast", "name": "Famous Toastery"}}, {"type": "node", "id": 11548492894, "lat": 35.199129, "lon": -80.8522975, "tags": {"amenity": "restaurant", "cuisine": "pizza", "name": "Inizio Pizza Napoletana", "website": "https://www.iniziopizza.com"}}, {"type": "node", "id": 11548492906, "lat": 35.2000654, "lon": -80.8524841, "tags": {"amenity": "restaurant", "cuisine": "pizza", "name": "Sal's Pizza Factory"}}, {"type": "node", "id": 11548492907, "lat": 35.2000043, "lon": -80.8524758, "tags": {"amenity": "restaurant", "cuisine": "asian", "name": "Peru Asian"}}, {"type": "node", "id": 11548492912, "lat": 35.1999785, "lon": -80.8527701, "tags": {"amenity": "restaurant", "name": "Comet Grill"}}, {"type": "node", "id": 11586004505, "lat": 35.0711062, "lon": -80.8441742, "tags": {"amenity": "restaurant", "cuisine": "american", "name": "Hickory Tavern", "website": "https://thehickorytavern.com"}}, {"type": "node", "id": 11586004562, "lat": 35.0687538, "lon": -80.8427409, "tags": {"amenity": "restaurant", "cuisine": "italian", "name": "Buona Vita"}}, {"type": "node", "id": 11586004566, "lat": 35.0686531, "lon": -80.8424343, "tags": {"amenity": "restaurant", "cuisine": "mediterranean", "name": "Zeitouni Mediterranean Grill"}}, {"type": "node", "id": 11586004567, "lat": 35.0685259, "lon": -80.8421221, "tags": {"amenity": "restaurant", "cuisine": "japanese", "name": "Tsuki"}}, {"type": "node", "id": 11586004568, "lat": 35.0685004, "lon": -80.8420218, "tags": {"amenity": "restaurant", "cuisine": "noodle", "name": "Ten Seconds"}}, {"type": "node", "id": 11586029774, "lat": 35.0687219, "lon": -80.841366, "tags": {"amenity": "restaurant", "cuisine": "spanish", "name": "Mir\u00f3 Spanish Grille"}}, {"type": "node", "id": 11596375110, "lat": 35.2140572, "lon": -80.7823057, "tags": {"addr:city": "Charlotte", "addr:housenumber": "3052", "addr:postcode": "28205", "addr:state": "NC", "addr:street": "Eastway Drive", "amenity": "restaurant", "name": "Royal African Cuisine"}}, {"type": "node", "id": 11627463556, "lat": 35.2206835, "lon": -80.8173615, "tags": {"amenity": "restaurant", "cuisine": "sushi", "name": "Kodotu"}}, {"type": "node", "id": 11627479337, "lat": 35.2210201, "lon": -80.8155871, "tags": {"amenity": "restaurant", "brand": "Snooze", "brand:wikidata": "Q111304345", "cuisine": "breakfast", "name": "Snooze", "official_name": "Snooze, an A.M. Eatery"}}, {"type": "node", "id": 11627479370, "lat": 35.2202418, "lon": -80.8129992, "tags": {"amenity": "restaurant", "cuisine": "pizza", "name": "Emmy Squared Pizza", "website": "https://www.emmysquaredpizza.com"}}, {"type": "node", "id": 11627671795, "lat": 35.2217739, "lon": -80.8191703, "tags": {"amenity": "restaurant", "cuisine": "mexican", "name": "La Autentica"}}, {"type": "node", "id": 11627961288, "lat": 35.153758, "lon": -80.8278465, "tags": {"addr:city": "Charlotte", "addr:housenumber": "6601", "addr:postcode": "28211", "addr:state": "NC", "addr:street": "Carnegie Boulevard", "amenity": "restaurant", "name": "Rooster's", "website": "https://roosterskitchen.com/"}}, {"type": "node", "id": 11629373171, "lat": 35.2128275, "lon": -80.6908494, "tags": {"addr:city": "Charlotte", "addr:housenumber": "9013", "addr:postcode": "28227", "addr:state": "NC", "addr:street": "Albemarle Road", "amenity": "restaurant", "cuisine": "chinese", "name": "Chin Chin II", "phone": "+17045687833", "website": "https://chinchin2charlotte.com/", "website:menu": "https://chinchin2charlotte.com/menu/"}}, {"type": "node", "id": 11630774505, "lat": 35.1742647, "lon": -80.8402606, "tags": {"amenity": "restaurant", "name": "littleSpoon"}}, {"type": "node", "id": 11633438726, "lat": 35.2341391, "lon": -80.8280068, "tags": {"amenity": "restaurant", "cuisine": "mediterranean", "name": "Mezeh"}}, {"type": "node", "id": 11633438727, "lat": 35.2342279, "lon": -80.8278809, "tags": {"amenity": "restaurant", "cuisine": "indian", "name": "Botiwalla"}}, {"type": "node", "id": 11633438731, "lat": 35.2343379, "lon": -80.8274802, "tags": {"amenity": "restaurant", "cuisine": "sandwich", "name": "Papi Queso"}}, {"type": "node", "id": 11633438732, "lat": 35.2342815, "lon": -80.8274295, "tags": {"amenity": "restaurant", "name": "Felix's Empanadas"}}, {"type": "node", "id": 11633438734, "lat": 35.2341492, "lon": -80.8273, "tags": {"amenity": "restaurant", "name": "Bao & Broth"}}, {"type": "node", "id": 11633438737, "lat": 35.2339686, "lon": -80.8274187, "tags": {"amenity": "restaurant", "name": "The Dumpling Lady"}}, {"type": "node", "id": 11633438740, "lat": 35.2338969, "lon": -80.8275324, "tags": {"amenity": "restaurant", "name": "Noble Smoke"}}, {"type": "node", "id": 11633438741, "lat": 35.2338867, "lon": -80.8276572, "tags": {"amenity": "restaurant", "cuisine": "chicken;sandwich", "name": "Boxcar Bettys"}}, {"type": "node", "id": 11633438742, "lat": 35.2338455, "lon": -80.8276171, "tags": {"amenity": "restaurant", "name": "Schreiber's On Rye"}}, {"type": "node", "id": 11633438743, "lat": 35.2338497, "lon": -80.8277196, "tags": {"amenity": "restaurant", "name": "Enat Ethiopian"}}, {"type": "node", "id": 11633438745, "lat": 35.2338099, "lon": -80.8277848, "tags": {"amenity": "restaurant", "cuisine": "pizza", "name": "Ava Pizza"}}, {"type": "node", "id": 11633438746, "lat": 35.2337687, "lon": -80.8277429, "tags": {"amenity": "restaurant", "cuisine": "sushi", "name": "Zukku Sushi"}}, {"type": "node", "id": 11633438748, "lat": 35.2340545, "lon": -80.8279851, "tags": {"amenity": "restaurant", "cuisine": "mexican", "name": "El Thrifty"}}, {"type": "node", "id": 11649773957, "lat": 35.2163673, "lon": -80.8563374, "tags": {"addr:city": "Charlotte", "addr:housenumber": "1440", "addr:postcode": "28203", "addr:state": "NC", "addr:street": "South Tryon Street", "addr:unit": "Suite 103", "amenity": "restaurant", "cuisine": "pizza", "name": "PIE.ZAA", "opening_hours": "Mo 16:00-01:00; Tu-Th 11:00-01:00; Fr-Sa 11:00-02:00; Su 11:00-01:00", "phone": "+1-704-964-6645", "website": "https://www.piezaapizza.com/"}}]}